{"type":"Topology","arcs":[[[0,769],[9,5]],[[9,774],[0,-47],[0,-48],[0,-49],[0,-48],[0,-48],[0,-48],[0,-49],[0,-48],[0,-41],[0,-41],[0,-42],[0,-41],[0,-42],[0,-41],[0,-41],[0,-42],[0,-48],[31,0],[102,0]],[[142,10],[0,-10]],[[142,0],[-142,0],[0,769]],[[9,774],[113,66],[133,78],[133,77]],[[388,995],[166,-176],[33,-9],[16,-26],[16,-10]],[[619,774],[0,-113],[1,-299],[1,-199],[-2,-153]],[[619,10],[-106,0],[-118,0],[-118,0],[-118,0],[-17,0]],[[388,995],[134,78],[133,77],[49,54],[39,69],[8,59],[-5,24],[-19,18],[-20,9],[-21,14],[-21,21],[-12,16],[-9,16],[4,30],[5,21],[-1,12],[-7,12]],[[645,1525],[23,4],[39,8],[37,-12],[17,-30],[7,0],[32,-4],[15,5],[11,13],[21,30],[30,14],[22,20],[149,18],[44,2],[21,-3],[24,-11]],[[1137,1579],[2,-129],[-1,-208]],[[1138,1242],[-19,1],[-2,-124],[22,0],[-1,-116],[2,-105],[-2,-126]],[[1138,772],[-21,-2],[-65,-35],[-35,0],[-42,-29],[-26,-8],[-49,-5],[-20,-26],[-29,-1],[-44,-24],[-35,-9],[-29,21],[-17,21],[-17,8],[-8,28],[-12,18],[-10,33],[-29,16],[-31,-4]],[[645,1525],[-9,13],[-12,17],[-7,13],[-2,13],[0,20],[4,15],[5,11],[1,6],[512,0]],[[1137,1633],[0,-20]],[[1137,1613],[0,-34]],[[1544,1633],[0,-14]],[[1544,1619],[-43,-2],[-106,1],[-211,-2],[-47,-3]],[[1137,1633],[407,0]],[[1787,1352],[-14,2],[10,48],[-8,12],[-155,-1]],[[1620,1413],[5,70],[-41,4],[39,133],[-79,-1]],[[1544,1633],[243,0],[0,-281]],[[1787,9],[-28,0]],[[1759,9],[7,255],[9,320],[5,0],[2,96]],[[1782,680],[2,90],[3,0]],[[1787,770],[0,-761]],[[1787,9],[0,-9],[-425,0]],[[1362,0],[0,9]],[[1362,9],[98,0],[118,0],[118,0],[63,0]],[[1362,9],[-21,0],[-67,0]],[[1274,9],[-1,275],[0,466]],[[1273,750],[88,1],[122,-3]],[[1483,748],[23,-1],[174,-1],[0,-62],[102,-4]],[[1362,0],[-613,0]],[[749,0],[1,10]],[[750,10],[118,-1],[119,0],[118,0],[118,0],[51,0]],[[750,10],[-118,0],[-13,0]],[[1138,772],[-1,-24],[136,2]],[[749,0],[-607,0]],[[1483,748],[8,37],[1,58],[4,18],[46,51],[9,30],[29,58],[1,49],[0,186]],[[1581,1235],[-1,62],[18,-1],[1,57],[19,0],[2,60]],[[1787,1352],[0,-582]],[[1138,1242],[138,4],[201,0],[0,-9],[64,2],[40,-4]]],"transform":{"scale":[0.0011501958589815286,0.000704102878138395],"translate":[-79.773,41.9927]},"objects":{"ne_10m_admin_2_counties":{"type":"GeometryCollection","geometries":[{"arcs":[[0,1,2,3]],"type":"Polygon","properties":{"FEATURECLA":"Admin-2 scale rank","SCALERANK":0,"ADM2_CODE":"USA-42049","ISO_3166_2":"US-42","ISO_A2":"US","ADM0_SR":1,"NAME":"Erie","NAME_ALT":"Erie County","NAME_LOCAL":"","TYPE":"County","TYPE_EN":"County","CODE_LOCAL":"42049","REGION":"PA","REGION_COD":"42","ABBREV":"","AREA_SQKM":2082,"SAMEASCITY":0,"LABELRANK":0,"NAME_LEN":4,"MAPCOLOR9":1,"MAPCOLOR13":1,"FIPS":"US42049","SOV_A3":"US1","ADM0_A3":"USA","ADM0_LABEL":2,"ADMIN":"United States of America","GEONUNIT":"United States of America","GU_A3":"USA","MIN_LABEL":8,"MAX_LABEL":10,"MIN_ZOOM":6.6,"WIKIDATAID":"Q488679","NE_ID":1730094411,"latitude":42.012137,"longitude":-79.995881,"NAME_AR":"إيري، بنسيلفانيا","NAME_BN":"","NAME_DE":"Erie","NAME_EL":"","NAME_EN":"Erie","NAME_ES":"Erie","NAME_FA":"شهرستان اری، پنسیلوانیا","NAME_FR":"'Érié","NAME_HE":"מחוז אירי","NAME_HI":"","NAME_HU":"Erie","NAME_ID":"","NAME_IT":"Erie","NAME_JA":"エリー郡","NAME_KO":"이리","NAME_NL":"Erie","NAME_PL":"Erie","NAME_PT":"Erie","NAME_RU":"Эри","NAME_SV":"Erie","NAME_TR":"Erie","NAME_UK":"Ері","NAME_UR":"ایری کاؤنٹی، پنسلوانیا","NAME_VI":"Erie","NAME_ZH":"伊利县","NAME_ZHT":"伊利縣"}},{"arcs":[[4,5,6,7,-2]],"type":"Polygon","properties":{"FEATURECLA":"Admin-2 scale rank","SCALERANK":0,"ADM2_CODE":"USA-36013","ISO_3166_2":"US-36","ISO_A2":"US","ADM0_SR":1,"NAME":"Chautauqua","NAME_ALT":"Chautauqua County","NAME_LOCAL":"","TYPE":"County","TYPE_EN":"County","CODE_LOCAL":"36013","REGION":"NY","REGION_COD":"36","ABBREV":"","AREA_SQKM":2805,"SAMEASCITY":0,"LABELRANK":0,"NAME_LEN":10,"MAPCOLOR9":1,"MAPCOLOR13":1,"FIPS":"US36013","SOV_A3":"US1","ADM0_A3":"USA","ADM0_LABEL":2,"ADMIN":"United States of America","GEONUNIT":"United States of America","GU_A3":"USA","MIN_LABEL":8,"MAX_LABEL":10,"MIN_ZOOM":6.6,"WIKIDATAID":"Q115061","NE_ID":1730093503,"latitude":42.223473,"longitude":-79.338124,"NAME_AR":"تشاتاقوا، نيويورك","NAME_BN":"","NAME_DE":"Chautauqua","NAME_EL":"","NAME_EN":"Chautauqua","NAME_ES":"Chautauqua","NAME_FA":"شهرستان چاتاکوآ، نیویورک","NAME_FR":"Chautauqua","NAME_HE":"מחוז שאטוקווה","NAME_HI":"","NAME_HU":"Chautauqua","NAME_ID":"","NAME_IT":"Chautauqua","NAME_JA":"シャトークア郡","NAME_KO":"셔토쿼","NAME_NL":"Chautauqua","NAME_PL":"Chautauqua","NAME_PT":"Chautauqua","NAME_RU":"Шатокуа","NAME_SV":"Chautauqua","NAME_TR":"Chautauqua","NAME_UK":"Чотоква","NAME_UR":"چوٹوقوا کاؤنٹی، نیویارک","NAME_VI":"Chautauqua","NAME_ZH":"学托扩县","NAME_ZHT":"學托擴縣"}},{"arcs":[[8,9,10,11,12,-6]],"type":"Polygon","properties":{"FEATURECLA":"Admin-2 scale rank","SCALERANK":0,"ADM2_CODE":"USA-36029","ISO_3166_2":"US-36","ISO_A2":"US","ADM0_SR":1,"NAME":"Erie","NAME_ALT":"Erie County","NAME_LOCAL":"","TYPE":"County","TYPE_EN":"County","CODE_LOCAL":"36029","REGION":"NY","REGION_COD":"36","ABBREV":"","AREA_SQKM":2773,"SAMEASCITY":0,"LABELRANK":0,"NAME_LEN":4,"MAPCOLOR9":1,"MAPCOLOR13":1,"FIPS":"US36029","SOV_A3":"US1","ADM0_A3":"USA","ADM0_LABEL":2,"ADMIN":"United States of America","GEONUNIT":"United States of America","GU_A3":"USA","MIN_LABEL":8,"MAX_LABEL":10,"MIN_ZOOM":6.6,"WIKIDATAID":"Q114843","NE_ID":1730093521,"latitude":42.703771,"longitude":-78.67121,"NAME_AR":"إيري، نيويورك","NAME_BN":"","NAME_DE":"Erie","NAME_EL":"Κομητεία Ήρι","NAME_EN":"Erie","NAME_ES":"Erie","NAME_FA":"شهرستان ایری، نیویورک","NAME_FR":"'Érié","NAME_HE":"מחוז אירי","NAME_HI":"","NAME_HU":"Erie","NAME_ID":"","NAME_IT":"Erie","NAME_JA":"エリー郡","NAME_KO":"이리","NAME_NL":"Erie","NAME_PL":"Erie","NAME_PT":"Erie","NAME_RU":"Эри","NAME_SV":"Erie","NAME_TR":"Erie","NAME_UK":"Ері","NAME_UR":"ایری کاؤنٹی، نیویارک","NAME_VI":"Erie","NAME_ZH":"伊利县","NAME_ZHT":"伊利縣"}},{"arcs":[[13,14,15,-10]],"type":"Polygon","properties":{"FEATURECLA":"Admin-2 scale rank","SCALERANK":0,"ADM2_CODE":"USA-36063","ISO_3166_2":"US-36","ISO_A2":"US","ADM0_SR":1,"NAME":"Niagara","NAME_ALT":"Niagara County","NAME_LOCAL":"","TYPE":"County","TYPE_EN":"County","CODE_LOCAL":"36063","REGION":"NY","REGION_COD":"36","ABBREV":"","AREA_SQKM":1268,"SAMEASCITY":0,"LABELRANK":0,"NAME_LEN":7,"MAPCOLOR9":1,"MAPCOLOR13":1,"FIPS":"US36063","SOV_A3":"US1","ADM0_A3":"USA","ADM0_LABEL":2,"ADMIN":"United States of America","GEONUNIT":"United States of America","GU_A3":"USA","MIN_LABEL":8,"MAX_LABEL":10,"MIN_ZOOM":6.6,"WIKIDATAID":"Q114969","NE_ID":1730096647,"latitude":43.216545,"longitude":-78.744241,"NAME_AR":"نياغرا، نيويورك","NAME_BN":"","NAME_DE":"Niagara","NAME_EL":"","NAME_EN":"Niagara","NAME_ES":"Niágara","NAME_FA":"شهرستان نیاگارا، نیویورک","NAME_FR":"Niagara","NAME_HE":"מחוז ניאגרה","NAME_HI":"","NAME_HU":"Niagara","NAME_ID":"","NAME_IT":"Niagara","NAME_JA":"ナイアガラ郡","NAME_KO":"나이아가라","NAME_NL":"Niagara","NAME_PL":"Niagara","NAME_PT":"Niagara","NAME_RU":"Ниагара","NAME_SV":"Niagara","NAME_TR":"Niagara","NAME_UK":"Ніагара","NAME_UR":"نیاگرا کاؤنٹی","NAME_VI":"Niagara","NAME_ZH":"尼亚加拉县","NAME_ZHT":"尼亞加拉縣"}},{"arcs":[[16,17,-15,18]],"type":"Polygon","properties":{"FEATURECLA":"Admin-2 scale rank","SCALERANK":0,"ADM2_CODE":"USA-36073","ISO_3166_2":"US-36","ISO_A2":"US","ADM0_SR":1,"NAME":"Orleans","NAME_ALT":"Orleans County","NAME_LOCAL":"","TYPE":"County","TYPE_EN":"County","CODE_LOCAL":"36073","REGION":"NY","REGION_COD":"36","ABBREV":"","AREA_SQKM":1016,"SAMEASCITY":0,"LABELRANK":0,"NAME_LEN":7,"MAPCOLOR9":1,"MAPCOLOR13":1,"FIPS":"US36073","SOV_A3":"US1","ADM0_A3":"USA","ADM0_LABEL":2,"ADMIN":"United States of America","GEONUNIT":"United States of America","GU_A3":"USA","MIN_LABEL":8,"MAX_LABEL":10,"MIN_ZOOM":6.6,"WIKIDATAID":"Q115125","NE_ID":1730093559,"latitude":43.250466,"longitude":-78.231215,"NAME_AR":"أورلينز، نيويورك","NAME_BN":"","NAME_DE":"Orleans","NAME_EL":"","NAME_EN":"Orleans","NAME_ES":"Orleans","NAME_FA":"شهرستان آرلینز، نیویورک","NAME_FR":"'Orleans","NAME_HE":"מחוז אורלינס","NAME_HI":"","NAME_HU":"Orleans","NAME_ID":"","NAME_IT":"Orleans","NAME_JA":"オーリンズ郡","NAME_KO":"올리언스","NAME_NL":"Orleans","NAME_PL":"Orleans","NAME_PT":"Orleans","NAME_RU":"Орлинс","NAME_SV":"Orleans","NAME_TR":"Orleans","NAME_UK":"Орлінс","NAME_UR":"اورلینز کاؤنٹی، نیو یارک","NAME_VI":"Orleans","NAME_ZH":"奥尔良县","NAME_ZHT":"奧爾良縣"}},{"arcs":[[19,20,-17,21]],"type":"Polygon","properties":{"FEATURECLA":"Admin-2 scale rank","SCALERANK":0,"ADM2_CODE":"USA-36055","ISO_3166_2":"US-36","ISO_A2":"US","ADM0_SR":1,"NAME":"Monroe","NAME_ALT":"Monroe County","NAME_LOCAL":"","TYPE":"County","TYPE_EN":"County","CODE_LOCAL":"36055","REGION":"NY","REGION_COD":"36","ABBREV":"","AREA_SQKM":1724,"SAMEASCITY":0,"LABELRANK":0,"NAME_LEN":6,"MAPCOLOR9":1,"MAPCOLOR13":1,"FIPS":"US36055","SOV_A3":"US1","ADM0_A3":"USA","ADM0_LABEL":2,"ADMIN":"United States of America","GEONUNIT":"United States of America","GU_A3":"USA","MIN_LABEL":8,"MAX_LABEL":10,"MIN_ZOOM":6.6,"WIKIDATAID":"Q115104","NE_ID":1730093545,"latitude":43.144802,"longitude":-77.70189,"NAME_AR":"مونرو، نيويورك","NAME_BN":"","NAME_DE":"Monroe","NAME_EL":"","NAME_EN":"Monroe","NAME_ES":"Monroe","NAME_FA":"شهرستان مونرو، نیویورک","NAME_FR":"Monroe","NAME_HE":"מחוז מונרו","NAME_HI":"","NAME_HU":"Monroe","NAME_ID":"","NAME_IT":"Monroe","NAME_JA":"モンロー郡","NAME_KO":"먼로","NAME_NL":"Monroe","NAME_PL":"Monroe","NAME_PT":"Monroe","NAME_RU":"Монро","NAME_SV":"Monroe","NAME_TR":"Monroe","NAME_UK":"Монро","NAME_UR":"مونرو کاؤنٹی، نیویارک","NAME_VI":"Monroe","NAME_ZH":"门罗县","NAME_ZHT":"門羅縣"}},{"arcs":[[22,23,24,25]],"type":"Polygon","properties":{"FEATURECLA":"Admin-2 scale rank","SCALERANK":0,"ADM2_CODE":"USA-36101","ISO_3166_2":"US-36","ISO_A2":"US","ADM0_SR":1,"NAME":"Steuben","NAME_ALT":"Steuben County","NAME_LOCAL":"","TYPE":"County","TYPE_EN":"County","CODE_LOCAL":"36101","REGION":"NY","REGION_COD":"36","ABBREV":"","AREA_SQKM":3647,"SAMEASCITY":0,"LABELRANK":0,"NAME_LEN":7,"MAPCOLOR9":1,"MAPCOLOR13":1,"FIPS":"US36101","SOV_A3":"US1","ADM0_A3":"USA","ADM0_LABEL":2,"ADMIN":"United States of America","GEONUNIT":"United States of America","GU_A3":"USA","MIN_LABEL":8,"MAX_LABEL":10,"MIN_ZOOM":6.6,"WIKIDATAID":"Q71100","NE_ID":1730093585,"latitude":42.287598,"longitude":-77.404523,"NAME_AR":"ستوبين، نيويورك","NAME_BN":"","NAME_DE":"Steuben","NAME_EL":"","NAME_EN":"Steuben","NAME_ES":"Steuben","NAME_FA":"شهرستان استوبین، نیویورک","NAME_FR":"Steuben","NAME_HE":"מחוז סטובן","NAME_HI":"","NAME_HU":"Steuben","NAME_ID":"","NAME_IT":"Steuben","NAME_JA":"ステューベン郡","NAME_KO":"슈토이벤","NAME_NL":"Steuben","NAME_PL":"Steuben","NAME_PT":"Steuben","NAME_RU":"Стьюбен","NAME_SV":"Steuben","NAME_TR":"Steuben","NAME_UK":"Стубен","NAME_UR":"سٹیوبن کاؤنٹی، نیویارک","NAME_VI":"Steuben","NAME_ZH":"斯托本郡","NAME_ZHT":"斯托本郡"}},{"arcs":[[-23,26,27,28]],"type":"Polygon","properties":{"FEATURECLA":"Admin-2 scale rank","SCALERANK":0,"ADM2_CODE":"USA-42105","ISO_3166_2":"US-42","ISO_A2":"US","ADM0_SR":1,"NAME":"Potter","NAME_ALT":"Potter County","NAME_LOCAL":"","TYPE":"County","TYPE_EN":"County","CODE_LOCAL":"42105","REGION":"PA","REGION_COD":"42","ABBREV":"","AREA_SQKM":2800,"SAMEASCITY":0,"LABELRANK":0,"NAME_LEN":6,"MAPCOLOR9":1,"MAPCOLOR13":1,"FIPS":"US42105","SOV_A3":"US1","ADM0_A3":"USA","ADM0_LABEL":2,"ADMIN":"United States of America","GEONUNIT":"United States of America","GU_A3":"USA","MIN_LABEL":8,"MAX_LABEL":10,"MIN_ZOOM":6.6,"WIKIDATAID":"Q501340","NE_ID":1730094473,"latitude":41.737468,"longitude":-77.895891,"NAME_AR":"بوتر","NAME_BN":"","NAME_DE":"Potter","NAME_EL":"","NAME_EN":"Potter","NAME_ES":"Potter","NAME_FA":"شهرستان پاتر، پنسیلوانیا","NAME_FR":"Potter","NAME_HE":"מחוז פוטר","NAME_HI":"","NAME_HU":"Potter","NAME_ID":"","NAME_IT":"Potter","NAME_JA":"ポッター郡","NAME_KO":"포터","NAME_NL":"Potter","NAME_PL":"Potter","NAME_PT":"Potter","NAME_RU":"Поттер","NAME_SV":"Potter","NAME_TR":"Potter","NAME_UK":"Поттер","NAME_UR":"پوٹر کاؤنٹی، پنسلوانیا","NAME_VI":"Potter","NAME_ZH":"波特县","NAME_ZHT":"波特縣"}},{"arcs":[[-29,29,30,31,32,-24]],"type":"Polygon","properties":{"FEATURECLA":"Admin-2 scale rank","SCALERANK":0,"ADM2_CODE":"USA-36003","ISO_3166_2":"US-36","ISO_A2":"US","ADM0_SR":1,"NAME":"Allegany","NAME_ALT":"Allegany County","NAME_LOCAL":"","TYPE":"County","TYPE_EN":"County","CODE_LOCAL":"36003","REGION":"NY","REGION_COD":"36","ABBREV":"","AREA_SQKM":2678,"SAMEASCITY":0,"LABELRANK":0,"NAME_LEN":8,"MAPCOLOR9":1,"MAPCOLOR13":1,"FIPS":"US36003","SOV_A3":"US1","ADM0_A3":"USA","ADM0_LABEL":2,"ADMIN":"United States of America","GEONUNIT":"United States of America","GU_A3":"USA","MIN_LABEL":8,"MAX_LABEL":10,"MIN_ZOOM":6.6,"WIKIDATAID":"Q47944","NE_ID":1730093493,"latitude":42.258675,"longitude":-78.0271,"NAME_AR":"ألليغاني، نيويورك","NAME_BN":"","NAME_DE":"Allegany","NAME_EL":"","NAME_EN":"Allegany","NAME_ES":"Allegany","NAME_FA":"شهرستان الیگنی، نیویورک","NAME_FR":"'Allegany","NAME_HE":"מחוז אלגאני","NAME_HI":"","NAME_HU":"Allegany","NAME_ID":"","NAME_IT":"Allegany","NAME_JA":"アリゲイニー郡","NAME_KO":"앨러게이니","NAME_NL":"Allegany","NAME_PL":"Allegany","NAME_PT":"Allegany","NAME_RU":"Аллегейни","NAME_SV":"Allegany","NAME_TR":"Allegany","NAME_UK":"Аллеґені","NAME_UR":"الیگانی کاؤنٹی، نیویارک","NAME_VI":"","NAME_ZH":"亞利加尼縣","NAME_ZHT":"亞利加尼縣"}},{"arcs":[[-30,-28,33,34,35]],"type":"Polygon","properties":{"FEATURECLA":"Admin-2 scale rank","SCALERANK":0,"ADM2_CODE":"USA-42083","ISO_3166_2":"US-42","ISO_A2":"US","ADM0_SR":1,"NAME":"McKean","NAME_ALT":"McKean County","NAME_LOCAL":"","TYPE":"County","TYPE_EN":"County","CODE_LOCAL":"42083","REGION":"PA","REGION_COD":"42","ABBREV":"","AREA_SQKM":2547,"SAMEASCITY":0,"LABELRANK":0,"NAME_LEN":6,"MAPCOLOR9":1,"MAPCOLOR13":1,"FIPS":"US42083","SOV_A3":"US1","ADM0_A3":"USA","ADM0_LABEL":2,"ADMIN":"United States of America","GEONUNIT":"United States of America","GU_A3":"USA","MIN_LABEL":8,"MAX_LABEL":10,"MIN_ZOOM":6.6,"WIKIDATAID":"Q495640","NE_ID":1730094449,"latitude":41.814112,"longitude":-78.568844,"NAME_AR":"ماكين","NAME_BN":"","NAME_DE":"McKean","NAME_EL":"","NAME_EN":"McKean","NAME_ES":"McKean","NAME_FA":"شهرستان مک کین","NAME_FR":"McKean","NAME_HE":"מחוז מק'קין","NAME_HI":"","NAME_HU":"McKean","NAME_ID":"","NAME_IT":"McKean","NAME_JA":"マッキーン郡","NAME_KO":"매킨","NAME_NL":"McKean","NAME_PL":"McKean","NAME_PT":"McKean","NAME_RU":"Маккин","NAME_SV":"McKean","NAME_TR":"McKean","NAME_UK":"Маккін","NAME_UR":"مککین کاؤنٹی، پنسلوانیا","NAME_VI":"McKean","NAME_ZH":"麦基恩县","NAME_ZHT":"麥基恩縣"}},{"arcs":[[-36,36,-7,-13,37,-31]],"type":"Polygon","properties":{"FEATURECLA":"Admin-2 scale rank","SCALERANK":0,"ADM2_CODE":"USA-36009","ISO_3166_2":"US-36","ISO_A2":"US","ADM0_SR":1,"NAME":"Cattaraugus","NAME_ALT":"Cattaraugus County","NAME_LOCAL":"","TYPE":"County","TYPE_EN":"County","CODE_LOCAL":"36009","REGION":"NY","REGION_COD":"36","ABBREV":"","AREA_SQKM":3427,"SAMEASCITY":0,"LABELRANK":0,"NAME_LEN":11,"MAPCOLOR9":1,"MAPCOLOR13":1,"FIPS":"US36009","SOV_A3":"US1","ADM0_A3":"USA","ADM0_LABEL":2,"ADMIN":"United States of America","GEONUNIT":"United States of America","GU_A3":"USA","MIN_LABEL":8,"MAX_LABEL":10,"MIN_ZOOM":6.6,"WIKIDATAID":"Q114923","NE_ID":1730093497,"latitude":42.242454,"longitude":-78.673621,"NAME_AR":"كاتاروغوس، نيويورك","NAME_BN":"","NAME_DE":"Cattaraugus","NAME_EL":"","NAME_EN":"Cattaraugus","NAME_ES":"Cattaraugus","NAME_FA":"شهرستان کاتاراگوس، نیویورک","NAME_FR":"Cattaraugus","NAME_HE":"","NAME_HI":"","NAME_HU":"Cattaraugus","NAME_ID":"","NAME_IT":"Cattaraugus","NAME_JA":"カタラウガス郡","NAME_KO":"카타라우구스","NAME_NL":"Cattaraugus","NAME_PL":"Cattaraugus","NAME_PT":"Cattaraugus","NAME_RU":"Катарогас","NAME_SV":"Cattaraugus","NAME_TR":"Cattaraugus","NAME_UK":"Каттароґус","NAME_UR":"کیٹاروگس کاؤنٹی","NAME_VI":"Cattaraugus","NAME_ZH":"卡特罗格斯县","NAME_ZHT":"卡特羅格斯縣"}},{"arcs":[[-37,-35,38,-3,-8]],"type":"Polygon","properties":{"FEATURECLA":"Admin-2 scale rank","SCALERANK":0,"ADM2_CODE":"USA-42123","ISO_3166_2":"US-42","ISO_A2":"US","ADM0_SR":1,"NAME":"Warren","NAME_ALT":"Warren County","NAME_LOCAL":"","TYPE":"County","TYPE_EN":"County","CODE_LOCAL":"42123","REGION":"PA","REGION_COD":"42","ABBREV":"","AREA_SQKM":2334,"SAMEASCITY":0,"LABELRANK":0,"NAME_LEN":6,"MAPCOLOR9":1,"MAPCOLOR13":1,"FIPS":"US42123","SOV_A3":"US1","ADM0_A3":"USA","ADM0_LABEL":2,"ADMIN":"United States of America","GEONUNIT":"United States of America","GU_A3":"USA","MIN_LABEL":8,"MAX_LABEL":10,"MIN_ZOOM":6.6,"WIKIDATAID":"Q495662","NE_ID":1730094493,"latitude":41.813539,"longitude":-79.273694,"NAME_AR":"وارين","NAME_BN":"","NAME_DE":"Warren","NAME_EL":"","NAME_EN":"Warren","NAME_ES":"Warren","NAME_FA":"شهرستان وارن، پنسیلوانیا","NAME_FR":"Warren","NAME_HE":"מחוז וורן","NAME_HI":"","NAME_HU":"Warren","NAME_ID":"","NAME_IT":"Warren","NAME_JA":"ウォーレン郡","NAME_KO":"워런","NAME_NL":"Warren","NAME_PL":"Warren","NAME_PT":"Warren","NAME_RU":"Уоррен","NAME_SV":"Warren","NAME_TR":"Warren","NAME_UK":"Воррен","NAME_UR":"وارن کاؤنٹی، پنسلوانیا","NAME_VI":"Warren","NAME_ZH":"沃伦县","NAME_ZHT":"沃倫縣"}},{"arcs":[[-33,39,40,-20,41,-25]],"type":"Polygon","properties":{"FEATURECLA":"Admin-2 scale rank","SCALERANK":0,"ADM2_CODE":"USA-36051","ISO_3166_2":"US-36","ISO_A2":"US","ADM0_SR":1,"NAME":"Livingston","NAME_ALT":"Livingston County","NAME_LOCAL":"","TYPE":"County","TYPE_EN":"County","CODE_LOCAL":"36051","REGION":"NY","REGION_COD":"36","ABBREV":"","AREA_SQKM":1694,"SAMEASCITY":0,"LABELRANK":0,"NAME_LEN":10,"MAPCOLOR9":1,"MAPCOLOR13":1,"FIPS":"US36051","SOV_A3":"US1","ADM0_A3":"USA","ADM0_LABEL":2,"ADMIN":"United States of America","GEONUNIT":"United States of America","GU_A3":"USA","MIN_LABEL":8,"MAX_LABEL":10,"MIN_ZOOM":6.6,"WIKIDATAID":"Q487578","NE_ID":1730093541,"latitude":42.730514,"longitude":-77.77961,"NAME_AR":"ليفينغستون، نيويورك","NAME_BN":"","NAME_DE":"Livingston","NAME_EL":"","NAME_EN":"Livingston","NAME_ES":"Livingston","NAME_FA":"شهرستان لیوینگستون، نیویورک","NAME_FR":"Livingston","NAME_HE":"מחוז ליווינגסטון","NAME_HI":"","NAME_HU":"Livingston","NAME_ID":"","NAME_IT":"Livingston","NAME_JA":"リヴィングストン郡","NAME_KO":"리빙스턴","NAME_NL":"Livingston","NAME_PL":"Livingston","NAME_PT":"Livingston","NAME_RU":"Ливингстон","NAME_SV":"Livingston","NAME_TR":"Livingston","NAME_UK":"Лівінґстон","NAME_UR":"لونگسٹن کاؤنٹی، نیویارک","NAME_VI":"Livingston","NAME_ZH":"利文斯顿县","NAME_ZHT":"利文斯頓縣"}},{"arcs":[[-32,-38,-12,42,-40]],"type":"Polygon","properties":{"FEATURECLA":"Admin-2 scale rank","SCALERANK":0,"ADM2_CODE":"USA-36121","ISO_3166_2":"US-36","ISO_A2":"US","ADM0_SR":1,"NAME":"Wyoming","NAME_ALT":"Wyoming County","NAME_LOCAL":"","TYPE":"County","TYPE_EN":"County","CODE_LOCAL":"36121","REGION":"NY","REGION_COD":"36","ABBREV":"","AREA_SQKM":1516,"SAMEASCITY":0,"LABELRANK":0,"NAME_LEN":7,"MAPCOLOR9":1,"MAPCOLOR13":1,"FIPS":"US36121","SOV_A3":"US1","ADM0_A3":"USA","ADM0_LABEL":2,"ADMIN":"United States of America","GEONUNIT":"United States of America","GU_A3":"USA","MIN_LABEL":8,"MAX_LABEL":10,"MIN_ZOOM":6.6,"WIKIDATAID":"Q56145","NE_ID":1730093601,"latitude":42.695761,"longitude":-78.228478,"NAME_AR":"وايومينغ، نيويورك","NAME_BN":"","NAME_DE":"Wyoming","NAME_EL":"","NAME_EN":"Wyoming","NAME_ES":"Wyoming","NAME_FA":"شهرستان وایومینگ، نیویورک","NAME_FR":"Wyoming","NAME_HE":"מחוז ויומינג","NAME_HI":"","NAME_HU":"Wyoming","NAME_ID":"","NAME_IT":"Wyoming","NAME_JA":"ワイオミング郡","NAME_KO":"와이오밍","NAME_NL":"Wyoming","NAME_PL":"Wyoming","NAME_PT":"Wyoming","NAME_RU":"Вайоминг","NAME_SV":"Wyoming","NAME_TR":"Wyoming","NAME_UK":"Вайомінг","NAME_UR":"وایومنگ کاؤنٹی، نیویارک","NAME_VI":"","NAME_ZH":"懷俄明縣","NAME_ZHT":"懷俄明縣"}},{"arcs":[[-11,-16,-18,-21,-41,-43]],"type":"Polygon","properties":{"FEATURECLA":"Admin-2 scale rank","SCALERANK":0,"ADM2_CODE":"USA-36037","ISO_3166_2":"US-36","ISO_A2":"US","ADM0_SR":1,"NAME":"Genesee","NAME_ALT":"Genesee County","NAME_LOCAL":"","TYPE":"County","TYPE_EN":"County","CODE_LOCAL":"36037","REGION":"NY","REGION_COD":"36","ABBREV":"","AREA_SQKM":1283,"SAMEASCITY":0,"LABELRANK":0,"NAME_LEN":7,"MAPCOLOR9":1,"MAPCOLOR13":1,"FIPS":"US36037","SOV_A3":"US1","ADM0_A3":"USA","ADM0_LABEL":2,"ADMIN":"United States of America","GEONUNIT":"United States of America","GU_A3":"USA","MIN_LABEL":8,"MAX_LABEL":10,"MIN_ZOOM":6.6,"WIKIDATAID":"Q115014","NE_ID":1730093529,"latitude":43.001054,"longitude":-78.193736,"NAME_AR":"جينيسي، نيويورك","NAME_BN":"","NAME_DE":"Genesee","NAME_EL":"","NAME_EN":"Genesee","NAME_ES":"Genesee","NAME_FA":"شهرستان جنسی، نیویورک","NAME_FR":"Genesee","NAME_HE":"","NAME_HI":"","NAME_HU":"Genesee","NAME_ID":"","NAME_IT":"Genesee","NAME_JA":"ジェネシー郡","NAME_KO":"제네시","NAME_NL":"Genesee","NAME_PL":"Genesee","NAME_PT":"Genesee","NAME_RU":"Дженеси","NAME_SV":"Genesee","NAME_TR":"Genesee","NAME_UK":"Дженесі","NAME_UR":"جینسی کاؤنٹی، نیویارک","NAME_VI":"Genesee","NAME_ZH":"杰纳西县","NAME_ZHT":"傑納西縣"}}]}}}