{"type":"Topology","arcs":[[[667,0],[-15,51],[-30,16],[-37,67],[-56,71],[2,40],[46,56],[84,42]],[[661,343],[13,-11],[317,43],[26,-54],[68,33],[88,-35]],[[1173,319],[-13,-63],[-24,-18],[-33,-11],[-23,-36],[1,-49],[-9,-76],[-11,-27],[-27,-24],[8,-15],[-375,0]],[[1324,592],[-16,-38],[-22,-6],[-38,-29],[-23,-13],[-40,-49],[-12,-138]],[[661,343],[48,35],[47,59],[36,84],[-70,34],[-38,-34],[-19,65]],[[665,586],[20,38],[123,104],[41,68]],[[849,796],[96,-71],[45,-13],[38,29],[131,-49],[42,-66],[87,1],[36,-35]],[[1386,727],[-28,-48],[-16,-38],[-18,-49]],[[849,796],[22,54],[-20,26],[9,99],[59,62],[46,156],[-50,58],[21,92],[120,-36]],[[1056,1307],[28,-46],[37,-10],[228,-194]],[[1349,1057],[-36,-109]],[[1313,948],[-38,-126],[12,-41],[77,24],[11,-24],[11,-54]],[[1635,987],[-30,-57],[-17,-48],[-8,-46],[-5,-31],[-15,-46],[-8,-44],[-33,-44],[-48,-43],[-38,-58],[-13,-47],[-31,-14],[-42,-17],[-23,4],[7,37],[69,153],[-14,41]],[[1313,948],[61,-52],[60,32],[59,83],[49,7],[34,35],[59,-66]],[[1810,1608],[-1,-61],[-22,-130],[-75,-236],[-77,-194]],[[1349,1057],[24,127],[16,20],[-40,67],[0,112],[-37,68],[15,78],[-62,35],[-112,15],[-49,34],[-49,84],[121,369]],[[1176,2066],[20,-15],[205,-148],[205,-147],[204,-148]],[[1727,2643],[-39,-36],[-20,-25],[-13,-27],[-6,-46],[6,-27],[9,-27],[16,-109],[14,-44],[23,-53],[41,-35],[30,-48],[2,-57],[-8,-142],[30,-276],[-2,-83]],[[1176,2066],[-39,28]],[[1137,2094],[97,121],[438,516]],[[1672,2731],[3,-55]],[[1675,2676],[52,-33]],[[1810,1359],[19,55],[18,134],[29,133],[6,66],[2,264],[-8,122],[-22,111],[-20,50],[-25,33],[-68,73],[-34,71],[7,54],[18,53],[-5,65]],[[1675,2676],[896,125]],[[2571,2801],[-8,-149],[-4,-61],[39,-80],[29,-60],[27,-56],[31,-53],[-33,-29],[-101,-74],[-125,-92],[-115,-85],[-91,-67],[-29,-23],[11,-23],[50,-93],[51,-95],[6,-9],[10,-8],[5,-6],[7,-10],[10,-28],[6,-22],[9,-36]],[[2356,1642],[-15,-15],[5,-14],[-11,-33],[-44,-75],[-5,-13],[-45,0],[-25,-6],[-20,-19],[-91,-119],[-27,-52],[-11,-58]],[[2067,1238],[-23,24],[-92,34],[-142,63],[0,0]],[[2067,1238],[-11,-14],[-24,2],[-25,-4],[-10,-30],[-7,-73],[31,-42],[15,-42],[-66,-8],[-75,3],[-57,-25],[-69,3],[-11,42],[0,25],[14,33],[21,68],[14,38],[-9,42],[-18,16],[30,87]],[[2571,2801],[8,150],[8,149],[8,150],[5,89]],[[2600,3339],[3,60],[8,150],[8,149],[5,92]],[[2624,3790],[32,7],[81,-155],[8,-237],[25,-107],[3,-73],[117,72],[37,-39],[41,-33],[93,-59]],[[3061,3166],[146,-85],[139,-162],[42,-70],[56,-84],[53,-43],[21,-65],[-71,-213],[24,-223]],[[3471,2221],[-7,-19],[-7,-41],[4,-43],[-53,-4],[-43,37],[-19,20],[-12,15],[-29,14],[0,-39],[-51,-17],[-15,21],[-6,9],[-4,4],[-9,-13],[2,-43],[-7,-23],[-13,-19],[-22,-29],[-36,-25],[-20,-8],[-14,40],[-17,15],[-14,-37],[-18,-20],[-29,-5],[-34,-6],[-36,-22],[-29,-2],[-16,-14],[-17,-5],[-90,-73],[-29,-15],[-77,-59],[-22,-3],[-39,-36],[-39,-68],[-29,31],[-20,-8],[-37,-32],[-52,-13],[-14,29],[-15,-3],[-15,-37],[-17,-9],[-31,-5],[-15,-17],[-3,-2]],[[3061,3166],[-40,52],[4,52],[160,25],[78,-14],[100,18],[-18,138],[41,3],[109,41],[21,54],[50,4],[-2,59],[77,65],[36,5],[43,36]],[[3720,3704],[93,15],[10,-118],[-26,-165],[128,23],[33,-48],[50,-14],[-9,73],[43,10],[18,-52],[37,61],[101,19]],[[4198,3508],[18,-310],[20,8],[-11,-152],[-14,-49],[190,49],[23,-32],[63,-136],[-5,-172],[61,-43],[1,-42],[91,-139]],[[4635,2490],[-5,3],[-80,45],[-47,17],[-118,-32],[-19,-21],[-16,-23],[-17,-13],[-26,1],[-20,13],[-18,17],[-20,14],[-29,6],[-78,-6],[-22,-9],[-33,-31],[-15,6],[-28,-10],[-34,6],[-27,-42],[-75,-2],[-7,35],[1,33],[-16,36],[-6,76],[-8,15],[-19,-21],[-17,-32],[-6,-16],[-77,-89],[-53,-88],[-19,-24],[-24,-48],[-51,-5],[-31,21],[-21,-22],[-45,-26],[-19,-18],[-19,-35]],[[4971,2818],[-28,3],[24,-52],[34,-43],[20,-50],[-22,-77],[20,-20],[9,-4],[-39,-44],[-44,4],[-88,40],[-40,-7],[-46,-22],[-42,-35],[-26,-45],[-11,15],[-8,6],[-5,7],[-5,17],[-16,0],[-23,-21]],[[4198,3508],[-2,44],[45,10],[32,36],[4,67],[178,41],[4,-19],[249,41],[80,-204]],[[4788,3524],[74,-192],[223,32],[37,-317],[-279,-27],[84,-88],[33,-47],[11,-67]],[[6042,2673],[8,7],[-12,32],[-20,22],[-28,17],[-26,6],[-135,-3],[-20,-6],[-131,-83],[-97,110],[-24,-19],[-13,-76],[-20,-37],[-51,3],[-67,34],[-55,4],[-11,-85],[-56,43],[-126,-90],[-66,35],[-15,16],[-29,15],[-13,13],[-6,23],[5,23],[8,25],[1,29],[-10,32],[-20,31],[-30,22],[-12,2]],[[4788,3524],[103,22],[13,36]],[[4904,3582],[50,-41],[22,40],[41,-13],[58,26],[7,42],[-20,81],[63,33],[52,58],[17,47],[64,90]],[[5258,3945],[169,-183],[9,26],[68,-12],[348,-89],[195,32],[73,-8]],[[6120,3711],[0,-759]],[[6120,2952],[-3,-5],[-12,-44],[-18,-163],[-13,-63],[-31,-4],[-1,0]],[[6120,2666],[-13,-4],[-88,-47],[-13,29],[36,29]],[[6120,2952],[0,-286]],[[1756,983],[-27,-64],[-53,-118],[-1,-44],[-7,-43],[-55,-32],[-30,-15],[10,99],[19,84],[33,73],[99,244],[13,48],[10,28],[21,-8],[2,-38],[-27,-63],[-18,-51],[-3,-46],[14,-54]],[[2814,425],[43,17],[48,16],[41,18],[38,14],[44,7],[101,8],[43,-5],[-16,-28],[-133,-13],[-143,-59],[-70,-24]],[[2810,376],[4,49]],[[3931,780],[101,43],[110,62],[46,6],[0,-28],[-99,-30],[-55,-29],[-169,-93],[-162,-80],[-102,-50],[-220,-92],[-204,-66],[-106,-4],[-16,24],[103,-1],[75,32],[87,37],[149,52],[133,48],[55,27],[134,81],[72,29],[68,32]],[[2809,523],[0,0],[2,52],[-60,481],[-25,128],[-32,58]],[[2694,1242],[15,16],[-7,27],[16,10],[-2,24],[-34,54],[-18,30],[17,60],[49,-30],[63,-10],[0,-3],[-19,-58],[18,-22],[25,-23],[31,11],[34,6],[37,-19],[26,2],[7,44],[-12,35],[-38,-2],[-42,3],[-22,47],[5,23],[12,24],[14,0],[31,-24],[12,-35],[48,-17],[52,-5],[67,-15],[62,-36],[41,-11],[17,-8],[22,2],[95,35],[40,36],[23,50],[-9,54],[36,19],[46,16],[29,-12],[-11,-67],[27,-2],[19,11],[6,22],[-11,35],[17,9],[57,-29],[82,13],[225,-13],[145,20],[101,-14],[176,52],[140,8],[46,21],[134,109],[144,104],[37,59],[18,37],[66,13],[62,62],[51,72],[31,30],[112,67],[29,4],[32,-5],[26,-17],[12,-29],[-11,-36],[-28,-34],[-33,-26],[-27,-12],[-31,60],[-81,-57],[-142,-159],[-6,-34],[31,-10],[15,-13],[16,-9],[-11,-42],[-45,8],[-39,-12],[-13,-15],[-3,-31],[6,-33],[5,-41],[-9,-29],[-18,23],[-17,40],[-24,0],[-13,-43],[-46,-2],[-10,-3],[-22,-13],[-21,1],[-28,-33],[-20,-27],[1,-32],[-40,-40],[-36,-37],[-40,-7],[-34,-9],[-18,-65],[23,4],[22,-2],[20,-8],[18,-17],[43,38],[41,-7],[41,-23],[47,-18],[42,1],[49,40],[15,31],[13,39],[5,36],[25,13],[43,12],[46,68],[39,74],[52,17],[32,-2],[11,21],[-22,80],[21,17],[31,-1],[11,-49],[6,-46],[59,-12],[14,42],[30,7],[13,37],[5,28],[13,20],[41,-13],[56,-99],[7,60],[7,62],[27,31],[24,-5],[67,-122],[10,-34],[19,-17],[43,11],[79,41],[79,79],[39,24],[35,-20],[35,10],[2,75],[26,12],[25,-27],[30,-20],[0,20],[-25,45],[57,19],[58,-29],[37,-13],[-15,-31],[-42,-54],[-92,-25],[-164,-98],[-162,-77],[-150,-91],[-124,-71],[-201,-120],[-113,-66],[-73,-44],[-71,-23],[-40,-8],[25,51],[2,35],[-24,20],[-53,6],[-24,-10],[-9,-26],[5,-33],[14,-32],[1,-29],[-23,-26],[-82,-60],[-131,-62],[-205,-81],[-41,-18],[-16,-2],[-12,13],[12,12],[13,2],[97,41],[58,21],[-27,11],[-32,0],[-44,-4],[-55,26],[-35,-35],[-44,-44],[-76,-2],[-54,23],[30,-26],[-9,-43],[-31,-28],[-41,-33],[-54,-12],[-21,64],[-44,-24],[-33,-6],[-42,-46],[-136,24],[-21,-6],[-22,-52],[-45,-7],[-59,-15],[-32,-14],[-33,25],[-30,7],[-23,-13],[-4,-33],[-6,-35],[-26,-18],[-45,16],[-67,3],[-44,29],[-28,-24],[-31,-37],[-27,-28],[-88,-11],[-113,-68],[-62,-15],[-45,-10]],[[5756,2451],[-50,6],[-33,-13],[5,37],[21,19],[8,32],[23,-2],[16,-29],[11,22],[9,29],[35,6],[48,6],[29,18],[39,-3],[-15,-30],[-38,-18],[-49,-9],[-38,-44],[-21,-27]],[[5047,1931],[3,42],[25,4],[11,-33],[36,-34],[21,-8],[30,-9],[-4,-32],[8,-34],[-8,-34],[14,-28],[1,-24],[-23,8],[-24,23],[-41,24],[-47,-1],[-38,-9],[-25,30],[-3,44],[22,36],[42,35]],[[5482,2027],[46,-44],[36,-16],[27,-6],[-1,-17],[-13,-10],[1,-26],[7,-28],[-10,-22],[-14,-21],[-16,-24],[-1,43],[-3,45],[-11,29],[-30,8],[-28,0],[-11,13],[13,17],[14,23],[-6,36]],[[2810,376],[-311,-110],[16,49],[253,92],[46,18]],[[2128,936],[7,28],[-30,61],[19,73],[32,5],[22,-33],[15,-42],[15,-20],[24,17],[13,38],[-8,38],[-67,32],[4,35],[23,38],[30,2],[64,-33],[19,-59],[25,-47],[15,23],[-15,119],[43,103],[139,48],[93,10],[16,-40],[-6,-15],[-27,-29],[-25,12],[-18,-14],[30,-40],[48,-4],[4,27],[4,26],[30,-6],[0,-33],[28,-14]],[[2809,523],[-167,-35],[-117,-19],[-136,-76],[-34,-31],[-19,-11],[-24,7],[17,17],[2,29],[-26,26],[-58,-14],[-31,-37],[1,-49],[215,-3],[64,-3],[-13,-28],[-260,-5],[-93,9]],[[2130,300],[30,30],[-16,55],[-48,21]],[[2096,406],[-5,16]],[[2091,422],[56,45],[36,46],[2,176],[-9,52],[47,18],[11,81],[-106,96]],[[1357,454],[33,14],[27,19],[28,19],[14,-2],[8,-14],[3,-21],[-6,-13],[5,-34],[22,-29],[16,-38],[-100,-155],[-66,-71],[-12,6],[-17,0],[-31,-23],[-35,-25],[-26,-27],[-34,-6],[-40,-23],[-30,-10],[-17,7],[-4,19],[10,18],[18,13],[1,33],[-5,39],[18,28],[29,17],[24,23],[11,31],[8,49],[7,89],[6,51],[19,29],[24,19],[35,-19],[57,-13]],[[2091,422],[-20,18],[-36,29],[-35,25],[-30,10],[-45,-17]],[[1925,487],[-8,65],[-38,98],[-47,-38],[-52,86],[-16,61],[-57,50]],[[1707,809],[55,96],[45,51],[45,-29],[34,8],[20,-19],[78,68],[91,-17],[44,-68],[9,37]],[[2130,300],[-32,13],[-92,-19],[-175,-94],[-88,-41],[0,43],[184,82],[126,63],[28,33],[15,26]],[[1925,487],[-36,-11],[-17,-13],[-12,-14],[-17,-27],[-4,-30],[20,-45],[12,-59],[-29,-16],[-12,20],[-30,2],[-30,0],[-12,-20],[-19,-10],[-96,-17],[-33,4],[-16,28],[23,13],[5,21],[-14,24],[-52,27],[-21,46],[9,62],[25,33],[23,50],[-6,43],[2,3],[26,36],[9,20],[15,11],[21,16],[22,13],[21,52],[5,60]],[[3656,4178],[64,-474]],[[2624,3790],[3,58],[9,149],[8,150],[1,31]],[[2645,4178],[1011,0]],[[4779,4178],[13,-120],[35,-250],[38,-31],[41,-101],[-2,-94]],[[3656,4178],[1123,0]],[[5423,4178],[6,-106],[-51,8],[-34,-90],[-113,0],[27,-45]],[[4779,4178],[644,0]],[[5423,4178],[697,0],[0,-467]],[[173,2789],[1,-6],[-41,-32],[-46,-3],[-21,-9],[-28,-30],[-22,-3],[-11,-9],[-5,-10]],[[0,2687],[0,340]],[[0,3027],[4,-4],[21,0],[21,12]],[[46,3035],[23,7],[16,-11],[11,-25],[16,-52],[18,-32],[32,-69],[11,-64]],[[173,2789],[204,-148],[205,-147],[205,-148],[77,-56]],[[864,2290],[-285,-374]],[[579,1916],[-93,-121],[-189,-263],[6,-79],[-34,-67],[-56,-41],[-69,-4],[-39,41],[-75,-28]],[[30,1354],[-30,43]],[[0,1397],[0,1290]],[[30,1354],[-30,-37]],[[0,1317],[0,80]],[[0,791],[61,-22],[58,-38]],[[119,731],[19,-62],[-24,-133],[0,-72],[51,-51],[-37,-61],[16,-57],[-25,-59],[-37,-41],[-64,-154],[-18,12]],[[0,53],[0,738]],[[512,4178],[-83,-133],[156,-140],[216,-184],[41,-152],[16,-22]],[[858,3547],[-84,-53],[-43,-51],[-96,-175],[-176,-13],[-397,-22],[1,-99],[-20,-59],[3,-40]],[[0,3027],[0,1151],[512,0]],[[858,3547],[56,11],[69,46],[89,78],[29,-11],[-3,-78],[132,-47],[127,-26],[-17,107],[74,-28],[18,-28],[46,24],[29,-82],[178,29]],[[1685,3542],[-27,-66],[-15,-69],[-16,-123],[3,-74],[14,-55],[38,-81]],[[1682,3074],[16,-60],[7,-58],[-1,-54],[-6,-61],[-26,-110]],[[1137,2094],[-145,105],[-128,91]],[[2600,3339],[-114,-1],[-218,-43],[-513,-80],[-73,-141]],[[1685,3542],[22,62],[20,128],[6,107],[6,189],[-23,136],[-1,14]],[[1715,4178],[930,0]],[[2571,2801],[-893,-124],[-3,-1]],[[1056,1307],[0,58],[-35,44],[24,81],[-12,72],[-29,11],[-1,53],[-118,56],[-35,-7],[-58,19],[-102,120],[-109,-43],[26,119],[-28,26]],[[665,586],[-16,-19],[-118,-52],[-5,104],[30,40],[-27,45],[-9,61],[-35,23],[-16,69],[-312,-108],[-38,-18]],[[0,791],[0,526]],[[667,0],[-667,0],[0,53]],[[512,4178],[1203,0]]],"transform":{"scale":[0.00048366013071895553,0.0003096218286261364],"translate":[-74.7826,40.4928]},"objects":{"ne_10m_admin_2_counties":{"type":"GeometryCollection","geometries":[{"arcs":[[0,1,2]],"type":"Polygon","properties":{"FEATURECLA":"Admin-2 scale rank","SCALERANK":0,"ADM2_CODE":"USA-34023","ISO_3166_2":"US-34","ISO_A2":"US","ADM0_SR":1,"NAME":"Middlesex","NAME_ALT":"Middlesex County","NAME_LOCAL":"","TYPE":"County","TYPE_EN":"County","CODE_LOCAL":"34023","REGION":"NJ","REGION_COD":"34","ABBREV":"","AREA_SQKM":813,"SAMEASCITY":0,"LABELRANK":0,"NAME_LEN":9,"MAPCOLOR9":1,"MAPCOLOR13":1,"FIPS":"US34023","SOV_A3":"US1","ADM0_A3":"USA","ADM0_LABEL":2,"ADMIN":"United States of America","GEONUNIT":"United States of America","GU_A3":"USA","MIN_LABEL":8,"MAX_LABEL":10,"MIN_ZOOM":6.6,"WIKIDATAID":"Q496862","NE_ID":1730093401,"latitude":40.434581,"longitude":-74.376802,"NAME_AR":"ميدلسكس","NAME_BN":"","NAME_DE":"Middlesex","NAME_EL":"Κομητεία Μίντλσεξ","NAME_EN":"Middlesex","NAME_ES":"Middlesex","NAME_FA":"شهرستان میدلسکس، نیوجرسی","NAME_FR":"Middlesex","NAME_HE":"מחוז מידלסקס","NAME_HI":"","NAME_HU":"Middlesex","NAME_ID":"","NAME_IT":"Middlesex","NAME_JA":"ミドルセックス郡","NAME_KO":"미들섹스","NAME_NL":"Middlesex","NAME_PL":"Middlesex","NAME_PT":"Middlesex","NAME_RU":"Мидлсекс","NAME_SV":"Middlesex","NAME_TR":"Middlesex","NAME_UK":"Міддлсекс","NAME_UR":"مڈلسیکس کاؤنٹی، نیو جرسی","NAME_VI":"Middlesex","NAME_ZH":"密德萨克斯郡","NAME_ZHT":"密德薩克斯郡"}},{"arcs":[[3,-2,4,5,6]],"type":"Polygon","properties":{"FEATURECLA":"Admin-2 scale rank","SCALERANK":0,"ADM2_CODE":"USA-34039","ISO_3166_2":"US-34","ISO_A2":"US","ADM0_SR":1,"NAME":"Union","NAME_ALT":"Union County","NAME_LOCAL":"","TYPE":"County","TYPE_EN":"County","CODE_LOCAL":"34039","REGION":"NJ","REGION_COD":"34","ABBREV":"","AREA_SQKM":263,"SAMEASCITY":0,"LABELRANK":0,"NAME_LEN":5,"MAPCOLOR9":1,"MAPCOLOR13":1,"FIPS":"US34039","SOV_A3":"US1","ADM0_A3":"USA","ADM0_LABEL":2,"ADMIN":"United States of America","GEONUNIT":"United States of America","GU_A3":"USA","MIN_LABEL":8,"MAX_LABEL":10,"MIN_ZOOM":6.6,"WIKIDATAID":"Q502459","NE_ID":1730093415,"latitude":40.661484,"longitude":-74.312663,"NAME_AR":"يونيون","NAME_BN":"ইউনিয়ন কাউন্টি","NAME_DE":"Union","NAME_EL":"Κομητεία Γιούνιον","NAME_EN":"Union","NAME_ES":"Union","NAME_FA":"شهرستان یونیون، نیوجرسی","NAME_FR":"'Union","NAME_HE":"מחוז יוניון","NAME_HI":"","NAME_HU":"Union","NAME_ID":"","NAME_IT":"Union","NAME_JA":"ユニオン郡","NAME_KO":"유니언","NAME_NL":"Union","NAME_PL":"Union","NAME_PT":"Union","NAME_RU":"Юнион","NAME_SV":"Union","NAME_TR":"Union","NAME_UK":"Юніон","NAME_UR":"یونین کاؤنٹی، نیو جرسی","NAME_VI":"Union","NAME_ZH":"联合县","NAME_ZHT":"聯合縣"}},{"arcs":[[7,-7,8,9,10,11]],"type":"Polygon","properties":{"FEATURECLA":"Admin-2 scale rank","SCALERANK":0,"ADM2_CODE":"USA-34013","ISO_3166_2":"US-34","ISO_A2":"US","ADM0_SR":1,"NAME":"Essex","NAME_ALT":"Essex County","NAME_LOCAL":"","TYPE":"County","TYPE_EN":"County","CODE_LOCAL":"34013","REGION":"NJ","REGION_COD":"34","ABBREV":"","AREA_SQKM":331,"SAMEASCITY":0,"LABELRANK":0,"NAME_LEN":5,"MAPCOLOR9":1,"MAPCOLOR13":1,"FIPS":"US34013","SOV_A3":"US1","ADM0_A3":"USA","ADM0_LABEL":2,"ADMIN":"United States of America","GEONUNIT":"United States of America","GU_A3":"USA","MIN_LABEL":8,"MAX_LABEL":10,"MIN_ZOOM":6.6,"WIKIDATAID":"Q128077","NE_ID":1730093389,"latitude":40.798824,"longitude":-74.255638,"NAME_AR":"إسكس","NAME_BN":"","NAME_DE":"Essex","NAME_EL":"Κομητεία Έσεξ","NAME_EN":"Essex","NAME_ES":"Essex","NAME_FA":"اسیکس، نیوجرسی","NAME_FR":"'Essex","NAME_HE":"מחוז אסקס","NAME_HI":"","NAME_HU":"Essex","NAME_ID":"","NAME_IT":"Essex","NAME_JA":"エセックス郡","NAME_KO":"에식스","NAME_NL":"Essex","NAME_PL":"Essex","NAME_PT":"Essex","NAME_RU":"Эссекс","NAME_SV":"Essex","NAME_TR":"Essex","NAME_UK":"Ессекс","NAME_UR":"ایسیکس کاؤنٹی، نیو جرسی","NAME_VI":"Essex","NAME_ZH":"埃塞克斯县","NAME_ZHT":"艾塞克斯郡"}},{"arcs":[[12,-12,13]],"type":"Polygon","properties":{"FEATURECLA":"Admin-2 scale rank","SCALERANK":0,"ADM2_CODE":"USA-34017","ISO_3166_2":"US-34","ISO_A2":"US","ADM0_SR":1,"NAME":"Hudson","NAME_ALT":"Hudson County","NAME_LOCAL":"","TYPE":"County","TYPE_EN":"County","CODE_LOCAL":"34017","REGION":"NJ","REGION_COD":"34","ABBREV":"","AREA_SQKM":126,"SAMEASCITY":0,"LABELRANK":0,"NAME_LEN":6,"MAPCOLOR9":1,"MAPCOLOR13":1,"FIPS":"US34017","SOV_A3":"US1","ADM0_A3":"USA","ADM0_LABEL":2,"ADMIN":"United States of America","GEONUNIT":"United States of America","GU_A3":"USA","MIN_LABEL":8,"MAX_LABEL":10,"MIN_ZOOM":6.6,"WIKIDATAID":"Q490505","NE_ID":1730093395,"latitude":40.740711,"longitude":-74.072171,"NAME_AR":"هدسون","NAME_BN":"","NAME_DE":"Hudson","NAME_EL":"Κομητεία Χάντσον","NAME_EN":"Hudson","NAME_ES":"Hudson","NAME_FA":"شهرستان هادسون، نیوجرسی","NAME_FR":"Hudson","NAME_HE":"מחוז הדסון","NAME_HI":"","NAME_HU":"Hudson","NAME_ID":"","NAME_IT":"Hudson","NAME_JA":"ハドソン郡","NAME_KO":"허드슨","NAME_NL":"Hudson","NAME_PL":"Hudson","NAME_PT":"Hudson","NAME_RU":"Хадсон","NAME_SV":"Hudson","NAME_TR":"Hudson","NAME_UK":"Гудзон","NAME_UR":"ہڈسن کاؤنٹی، نیو جرسی","NAME_VI":"Hudson","NAME_ZH":"哈德逊县","NAME_ZHT":"哈德遜郡"}},{"arcs":[[14,-14,-11,15,16]],"type":"Polygon","properties":{"FEATURECLA":"Admin-2 scale rank","SCALERANK":0,"ADM2_CODE":"USA-34003","ISO_3166_2":"US-34","ISO_A2":"US","ADM0_SR":1,"NAME":"Bergen","NAME_ALT":"Bergen County","NAME_LOCAL":"","TYPE":"County","TYPE_EN":"County","CODE_LOCAL":"34003","REGION":"NJ","REGION_COD":"34","ABBREV":"","AREA_SQKM":610,"SAMEASCITY":0,"LABELRANK":0,"NAME_LEN":6,"MAPCOLOR9":1,"MAPCOLOR13":1,"FIPS":"US34003","SOV_A3":"US1","ADM0_A3":"USA","ADM0_LABEL":2,"ADMIN":"United States of America","GEONUNIT":"United States of America","GU_A3":"USA","MIN_LABEL":8,"MAX_LABEL":10,"MIN_ZOOM":6.6,"WIKIDATAID":"Q112915","NE_ID":1730093381,"latitude":40.938194,"longitude":-74.030581,"NAME_AR":"بيرغن","NAME_BN":"","NAME_DE":"Bergen","NAME_EL":"Κομητεία Μπέργκεν","NAME_EN":"Bergen","NAME_ES":"Bergen","NAME_FA":"شهرستان برگن، نیوجرسی","NAME_FR":"Bergen","NAME_HE":"מחוז ברגן","NAME_HI":"","NAME_HU":"Bergen","NAME_ID":"","NAME_IT":"Bergen","NAME_JA":"バーゲン郡","NAME_KO":"버건","NAME_NL":"Bergen","NAME_PL":"Bergen","NAME_PT":"Bergen","NAME_RU":"Берген","NAME_SV":"Bergen","NAME_TR":"Bergen","NAME_UK":"Берген","NAME_UR":"برگن کاؤنٹی، نیو جرسی","NAME_VI":"Bergen","NAME_ZH":"博根县","NAME_ZHT":"博根郡"}},{"arcs":[[17,-17,18,19,20,21]],"type":"Polygon","properties":{"FEATURECLA":"Admin-2 scale rank","SCALERANK":0,"ADM2_CODE":"USA-36087","ISO_3166_2":"US-36","ISO_A2":"US","ADM0_SR":1,"NAME":"Rockland","NAME_ALT":"Rockland County","NAME_LOCAL":"","TYPE":"County","TYPE_EN":"County","CODE_LOCAL":"36087","REGION":"NY","REGION_COD":"36","ABBREV":"","AREA_SQKM":485,"SAMEASCITY":0,"LABELRANK":0,"NAME_LEN":8,"MAPCOLOR9":1,"MAPCOLOR13":1,"FIPS":"US36087","SOV_A3":"US1","ADM0_A3":"USA","ADM0_LABEL":2,"ADMIN":"United States of America","GEONUNIT":"United States of America","GU_A3":"USA","MIN_LABEL":8,"MAX_LABEL":10,"MIN_ZOOM":6.6,"WIKIDATAID":"Q111098","NE_ID":1730093569,"latitude":41.15568,"longitude":-74.038995,"NAME_AR":"روكلاند، نيويورك","NAME_BN":"","NAME_DE":"Rockland","NAME_EL":"","NAME_EN":"Rockland","NAME_ES":"Rockland","NAME_FA":"شهرستان راکلند، نیویورک","NAME_FR":"Rockland","NAME_HE":"מחוז רוקלנד","NAME_HI":"","NAME_HU":"Rockland","NAME_ID":"","NAME_IT":"Rockland","NAME_JA":"ロックランド郡","NAME_KO":"로클랜드","NAME_NL":"Rockland","NAME_PL":"Rockland","NAME_PT":"Rockland","NAME_RU":"Рокленд","NAME_SV":"Rockland","NAME_TR":"Rockland","NAME_UK":"Рокленд","NAME_UR":"راکلینڈ کاؤنٹی، نیویارک","NAME_VI":"Rockland","NAME_ZH":"罗克兰县","NAME_ZHT":"羅克蘭縣"}},{"arcs":[[22,-22,23,24,25,26]],"type":"Polygon","properties":{"FEATURECLA":"Admin-2 scale rank","SCALERANK":0,"ADM2_CODE":"USA-36119","ISO_3166_2":"US-36","ISO_A2":"US","ADM0_SR":1,"NAME":"Westchester","NAME_ALT":"Westchester County","NAME_LOCAL":"","TYPE":"County","TYPE_EN":"County","CODE_LOCAL":"36119","REGION":"NY","REGION_COD":"36","ABBREV":"","AREA_SQKM":1153,"SAMEASCITY":0,"LABELRANK":0,"NAME_LEN":11,"MAPCOLOR9":1,"MAPCOLOR13":1,"FIPS":"US36119","SOV_A3":"US1","ADM0_A3":"USA","ADM0_LABEL":2,"ADMIN":"United States of America","GEONUNIT":"United States of America","GU_A3":"USA","MIN_LABEL":8,"MAX_LABEL":10,"MIN_ZOOM":6.6,"WIKIDATAID":"Q54066","NE_ID":1730096659,"latitude":41.214286,"longitude":-73.763387,"NAME_AR":"ويستتشستر، نيويورك","NAME_BN":"","NAME_DE":"Westchester","NAME_EL":"Κομητεία Γουέστσεστερ","NAME_EN":"Westchester","NAME_ES":"Westchester","NAME_FA":"شهرستان وستچستر، نیویورک","NAME_FR":"Westchester","NAME_HE":"מחוז וסטצ'סטר","NAME_HI":"","NAME_HU":"Westchester","NAME_ID":"Westchester","NAME_IT":"Westchester","NAME_JA":"ウェストチェスター郡","NAME_KO":"웨스트체스터","NAME_NL":"Westchester","NAME_PL":"Westchester","NAME_PT":"Westchester","NAME_RU":"Уэстчестер","NAME_SV":"Westchester","NAME_TR":"Westchester","NAME_UK":"Вестчестер","NAME_UR":"ویسٹچیسٹر کاؤنٹی، نیویارک","NAME_VI":"Westchester","NAME_ZH":"威斯特徹斯特郡","NAME_ZHT":"威斯特徹斯特郡"}},{"arcs":[[27,-27]],"type":"Polygon","properties":{"FEATURECLA":"Admin-2 scale rank","SCALERANK":0,"ADM2_CODE":"USA-36005","ISO_3166_2":"US-36","ISO_A2":"US","ADM0_SR":1,"NAME":"Bronx","NAME_ALT":"Bronx County","NAME_LOCAL":"","TYPE":"County","TYPE_EN":"County","CODE_LOCAL":"36005","REGION":"NY","REGION_COD":"36","ABBREV":"","AREA_SQKM":96,"SAMEASCITY":1,"LABELRANK":0,"NAME_LEN":5,"MAPCOLOR9":1,"MAPCOLOR13":1,"FIPS":"US36005","SOV_A3":"US1","ADM0_A3":"USA","ADM0_LABEL":2,"ADMIN":"United States of America","GEONUNIT":"United States of America","GU_A3":"USA","MIN_LABEL":8,"MAX_LABEL":10,"MIN_ZOOM":6.6,"WIKIDATAID":"Q18426","NE_ID":1730096639,"latitude":40.856852,"longitude":-73.866193,"NAME_AR":"ذا برونكس","NAME_BN":"দ্য ব্রংক্স","NAME_DE":"Bronx","NAME_EL":"Μπρονξ","NAME_EN":"The Bronx","NAME_ES":"El Bronx","NAME_FA":"برانکس","NAME_FR":"Bronx","NAME_HE":"הברונקס","NAME_HI":"ब्रोंक्स","NAME_HU":"Bronx","NAME_ID":"Bronx","NAME_IT":"The Bronx","NAME_JA":"ブロンクス区","NAME_KO":"브롱크스","NAME_NL":"The Bronx","NAME_PL":"Bronx","NAME_PT":"Bronx","NAME_RU":"Бронкс","NAME_SV":"Bronx","NAME_TR":"Bronx","NAME_UK":"Бронкс","NAME_UR":"برونکس کاؤنٹی","NAME_VI":"The Bronx","NAME_ZH":"布朗克斯","NAME_ZHT":"布朗克斯"}},{"arcs":[[-25,28,29,30,31,32]],"type":"Polygon","properties":{"FEATURECLA":"Admin-2 scale rank","SCALERANK":0,"ADM2_CODE":"USA-09001","ISO_3166_2":"US-09","ISO_A2":"US","ADM0_SR":1,"NAME":"Fairfield","NAME_ALT":"Fairfield County","NAME_LOCAL":"","TYPE":"County","TYPE_EN":"County","CODE_LOCAL":"09001","REGION":"CT","REGION_COD":"09","ABBREV":"","AREA_SQKM":1688,"SAMEASCITY":0,"LABELRANK":0,"NAME_LEN":9,"MAPCOLOR9":1,"MAPCOLOR13":1,"FIPS":"US09001","SOV_A3":"US1","ADM0_A3":"USA","ADM0_LABEL":2,"ADMIN":"United States of America","GEONUNIT":"United States of America","GU_A3":"USA","MIN_LABEL":8,"MAX_LABEL":10,"MIN_ZOOM":6.6,"WIKIDATAID":"Q54231","NE_ID":1730096425,"latitude":41.299434,"longitude":-73.331736,"NAME_AR":"فيرفيلد","NAME_BN":"","NAME_DE":"Fairfield","NAME_EL":"","NAME_EN":"Fairfield","NAME_ES":"Fairfield","NAME_FA":"شهرستان فیرفیلد، کنتیکت","NAME_FR":"Fairfield","NAME_HE":"מחוז פיירפילד","NAME_HI":"","NAME_HU":"Fairfield","NAME_ID":"Fairfield","NAME_IT":"Fairfield","NAME_JA":"フェアフィールド郡","NAME_KO":"페어필드","NAME_NL":"Fairfield","NAME_PL":"Fairfield","NAME_PT":"Fairfield","NAME_RU":"Фэрфилд","NAME_SV":"Fairfield","NAME_TR":"Fairfield","NAME_UK":"Ферфілд","NAME_UR":"فیئرفیلڈ کاؤنٹی، کنیکٹیکٹ","NAME_VI":"Fairfield","NAME_ZH":"費爾菲爾德縣","NAME_ZHT":"費爾菲爾德縣"}},{"arcs":[[-32,33,34,35,36]],"type":"Polygon","properties":{"FEATURECLA":"Admin-2 scale rank","SCALERANK":0,"ADM2_CODE":"USA-09009","ISO_3166_2":"US-09","ISO_A2":"US","ADM0_SR":1,"NAME":"New Haven","NAME_ALT":"New Haven County","NAME_LOCAL":"","TYPE":"County","TYPE_EN":"County","CODE_LOCAL":"09009","REGION":"CT","REGION_COD":"09","ABBREV":"","AREA_SQKM":1551,"SAMEASCITY":0,"LABELRANK":0,"NAME_LEN":9,"MAPCOLOR9":1,"MAPCOLOR13":1,"FIPS":"US09009","SOV_A3":"US1","ADM0_A3":"USA","ADM0_LABEL":2,"ADMIN":"United States of America","GEONUNIT":"United States of America","GU_A3":"USA","MIN_LABEL":8,"MAX_LABEL":10,"MIN_ZOOM":6.6,"WIKIDATAID":"Q54234","NE_ID":1730090307,"latitude":41.429535,"longitude":-72.996224,"NAME_AR":"نيو هيفن","NAME_BN":"নিউ হ্যাভেন কাউন্টি","NAME_DE":"New Haven","NAME_EL":"Κομητεία Νιου Χέιβεν","NAME_EN":"New Haven","NAME_ES":"New Haven","NAME_FA":"شهرستان نیو هاون، کنتیکت","NAME_FR":"New Haven","NAME_HE":"מחוז ניו הייבן","NAME_HI":"","NAME_HU":"New Haven","NAME_ID":"","NAME_IT":"New Haven","NAME_JA":"ニュー・ヘイヴン郡","NAME_KO":"뉴 헤이븐","NAME_NL":"New Haven","NAME_PL":"New Haven","NAME_PT":"New Haven","NAME_RU":"Нью-Хейвен","NAME_SV":"New Haven","NAME_TR":"New Haven","NAME_UK":"Нью-Гейвен","NAME_UR":"نیو ہیون کاؤنٹی، کنیکٹیکٹ","NAME_VI":"New Haven","NAME_ZH":"紐黑文縣","NAME_ZHT":"紐黑文縣"}},{"arcs":[[37,-36,38,39]],"type":"Polygon","properties":{"FEATURECLA":"Admin-2 scale rank","SCALERANK":0,"ADM2_CODE":"USA-09007","ISO_3166_2":"US-09","ISO_A2":"US","ADM0_SR":1,"NAME":"Middlesex","NAME_ALT":"Middlesex County","NAME_LOCAL":"","TYPE":"County","TYPE_EN":"County","CODE_LOCAL":"09007","REGION":"CT","REGION_COD":"09","ABBREV":"","AREA_SQKM":982,"SAMEASCITY":0,"LABELRANK":0,"NAME_LEN":9,"MAPCOLOR9":1,"MAPCOLOR13":1,"FIPS":"US09007","SOV_A3":"US1","ADM0_A3":"USA","ADM0_LABEL":2,"ADMIN":"United States of America","GEONUNIT":"United States of America","GU_A3":"USA","MIN_LABEL":8,"MAX_LABEL":10,"MIN_ZOOM":6.6,"WIKIDATAID":"Q54238","NE_ID":1730096427,"latitude":41.479426,"longitude":-72.541465,"NAME_AR":"ميدلسكس","NAME_BN":"","NAME_DE":"Middlesex","NAME_EL":"","NAME_EN":"Middlesex","NAME_ES":"Middlesex","NAME_FA":"شهرستان میدلسکس، کنتیکت","NAME_FR":"Middlesex","NAME_HE":"מחוז מידלסקס","NAME_HI":"","NAME_HU":"Middlesex","NAME_ID":"Wilayah Middlesex","NAME_IT":"Middlesex","NAME_JA":"ミドルセックス郡","NAME_KO":"미들섹스","NAME_NL":"Middlesex","NAME_PL":"Middlesex","NAME_PT":"Middlesex","NAME_RU":"Мидлсекс","NAME_SV":"Middlesex","NAME_TR":"Middlesex","NAME_UK":"Міддлсекс","NAME_UR":"مڈلسیکس کاؤنٹی، کنیکٹیکٹ","NAME_VI":"Middlesex","NAME_ZH":"米德爾塞克斯郡","NAME_ZHT":"米德爾塞克斯郡"}},{"arcs":[[40,-40,41,42,43,44,45]],"type":"Polygon","properties":{"FEATURECLA":"Admin-2 scale rank","SCALERANK":0,"ADM2_CODE":"USA-09011","ISO_3166_2":"US-09","ISO_A2":"US","ADM0_SR":1,"NAME":"New London","NAME_ALT":"New London County","NAME_LOCAL":"","TYPE":"County","TYPE_EN":"County","CODE_LOCAL":"09011","REGION":"CT","REGION_COD":"09","ABBREV":"","AREA_SQKM":1739,"SAMEASCITY":0,"LABELRANK":0,"NAME_LEN":10,"MAPCOLOR9":1,"MAPCOLOR13":1,"FIPS":"US09011","SOV_A3":"US1","ADM0_A3":"USA","ADM0_LABEL":2,"ADMIN":"United States of America","GEONUNIT":"United States of America","GU_A3":"USA","MIN_LABEL":8,"MAX_LABEL":10,"MIN_ZOOM":6.6,"WIKIDATAID":"Q54240","NE_ID":1730096429,"latitude":41.506228,"longitude":-72.108096,"NAME_AR":"نيو لندن","NAME_BN":"","NAME_DE":"New London","NAME_EL":"","NAME_EN":"New London","NAME_ES":"New London","NAME_FA":"شهرستان نیو لندن، کنتیکت","NAME_FR":"New London","NAME_HE":"מחוז ניו לונדון","NAME_HI":"","NAME_HU":"New London","NAME_ID":"","NAME_IT":"New London","NAME_JA":"ニューロンドン郡","NAME_KO":"뉴런던","NAME_NL":"New London","NAME_PL":"New London","NAME_PT":"New London","NAME_RU":"Нью-Лондон","NAME_SV":"New London","NAME_TR":"New London","NAME_UK":"Нью-Лондон","NAME_UR":"نیو لندن کاؤنٹی، کنیکٹیکٹ","NAME_VI":"New London","NAME_ZH":"新倫敦縣","NAME_ZHT":"新倫敦縣"}},{"arcs":[[46,-46,47]],"type":"Polygon","properties":{"FEATURECLA":"Admin-2 scale rank","SCALERANK":0,"ADM2_CODE":"USA-44009","ISO_3166_2":"US-44","ISO_A2":"US","ADM0_SR":1,"NAME":"Washington","NAME_ALT":"Washington County","NAME_LOCAL":"","TYPE":"County","TYPE_EN":"County","CODE_LOCAL":"44009","REGION":"RI","REGION_COD":"44","ABBREV":"","AREA_SQKM":910,"SAMEASCITY":0,"LABELRANK":0,"NAME_LEN":10,"MAPCOLOR9":1,"MAPCOLOR13":1,"FIPS":"US44009","SOV_A3":"US1","ADM0_A3":"USA","ADM0_LABEL":2,"ADMIN":"United States of America","GEONUNIT":"United States of America","GU_A3":"USA","MIN_LABEL":8,"MAX_LABEL":10,"MIN_ZOOM":6.6,"WIKIDATAID":"Q54258","NE_ID":1730096709,"latitude":41.481152,"longitude":-71.625117,"NAME_AR":"واشنطن","NAME_BN":"ওয়াশিংটন কাউন্টি","NAME_DE":"Washington","NAME_EL":"","NAME_EN":"Washington","NAME_ES":"Washington","NAME_FA":"شهرستان واشینگتن، رود آیلند","NAME_FR":"Washington","NAME_HE":"מחוז וושינגטון","NAME_HI":"","NAME_HU":"Washington","NAME_ID":"","NAME_IT":"Washington","NAME_JA":"ワシントン郡","NAME_KO":"워싱턴","NAME_NL":"Washington","NAME_PL":"Washington","NAME_PT":"Washington","NAME_RU":"Вашингтон","NAME_SV":"Washington","NAME_TR":"Washington","NAME_UK":"Вашингтон","NAME_UR":"واشنگٹن کاؤنٹی، روڈ آئلینڈ","NAME_VI":"","NAME_ZH":"華盛頓縣","NAME_ZHT":"華盛頓縣"}},{"arcs":[[48]],"type":"Polygon","properties":{"FEATURECLA":"Admin-2 scale rank","SCALERANK":0,"ADM2_CODE":"USA-36061","ISO_3166_2":"US-36","ISO_A2":"US","ADM0_SR":1,"NAME":"New York","NAME_ALT":"New York County","NAME_LOCAL":"","TYPE":"County","TYPE_EN":"County","CODE_LOCAL":"36061","REGION":"NY","REGION_COD":"36","ABBREV":"","AREA_SQKM":49,"SAMEASCITY":1,"LABELRANK":0,"NAME_LEN":8,"MAPCOLOR9":1,"MAPCOLOR13":1,"FIPS":"US36061","SOV_A3":"US1","ADM0_A3":"USA","ADM0_LABEL":2,"ADMIN":"United States of America","GEONUNIT":"United States of America","GU_A3":"USA","MIN_LABEL":8,"MAX_LABEL":10,"MIN_ZOOM":6.6,"WIKIDATAID":"Q500416","NE_ID":1730096645,"latitude":40.775919,"longitude":-73.969166,"NAME_AR":"","NAME_BN":"","NAME_DE":"New York","NAME_EL":"","NAME_EN":"New York","NAME_ES":"Nueva York","NAME_FA":"","NAME_FR":"New York","NAME_HE":"","NAME_HI":"","NAME_HU":"","NAME_ID":"","NAME_IT":"New York","NAME_JA":"ニュー・ヨーク郡","NAME_KO":"","NAME_NL":"New York","NAME_PL":"","NAME_PT":"","NAME_RU":"Нью-Йорк","NAME_SV":"","NAME_TR":"","NAME_UK":"","NAME_UR":"","NAME_VI":"","NAME_ZH":"纽约县","NAME_ZHT":"纽约县"}},{"arcs":[[[49,50]],[[51]],[[52,53]],[[54]],[[55]],[[56]]],"type":"MultiPolygon","properties":{"FEATURECLA":"Admin-2 scale rank","SCALERANK":0,"ADM2_CODE":"USA-36103","ISO_3166_2":"US-36","ISO_A2":"US","ADM0_SR":1,"NAME":"Suffolk","NAME_ALT":"Suffolk County","NAME_LOCAL":"","TYPE":"County","TYPE_EN":"County","CODE_LOCAL":"36103","REGION":"NY","REGION_COD":"36","ABBREV":"","AREA_SQKM":2501,"SAMEASCITY":0,"LABELRANK":0,"NAME_LEN":7,"MAPCOLOR9":1,"MAPCOLOR13":1,"FIPS":"US36103","SOV_A3":"US1","ADM0_A3":"USA","ADM0_LABEL":2,"ADMIN":"United States of America","GEONUNIT":"United States of America","GU_A3":"USA","MIN_LABEL":8,"MAX_LABEL":10,"MIN_ZOOM":6.6,"WIKIDATAID":"Q54065","NE_ID":1730096655,"latitude":40.856253,"longitude":-72.98434,"NAME_AR":"سوفولك، نيويورك","NAME_BN":"","NAME_DE":"Suffolk","NAME_EL":"","NAME_EN":"Suffolk","NAME_ES":"Suffolk","NAME_FA":"شهرستان سافولک، نیویورک","NAME_FR":"Suffolk","NAME_HE":"מחוז סאפוק","NAME_HI":"","NAME_HU":"Suffolk","NAME_ID":"","NAME_IT":"Suffolk","NAME_JA":"サフォーク郡","NAME_KO":"서퍽","NAME_NL":"Suffolk","NAME_PL":"Suffolk","NAME_PT":"Suffolk","NAME_RU":"Саффолк","NAME_SV":"Suffolk","NAME_TR":"Suffolk","NAME_UK":"Саффолк","NAME_UR":"سفوک کاؤنٹی، نیویارک","NAME_VI":"","NAME_ZH":"萨福克县","NAME_ZHT":"沙福郡"}},{"arcs":[[[57,-51]],[[58,-53,59,60,61,62]]],"type":"MultiPolygon","properties":{"FEATURECLA":"Admin-2 scale rank","SCALERANK":0,"ADM2_CODE":"USA-36059","ISO_3166_2":"US-36","ISO_A2":"US","ADM0_SR":1,"NAME":"Nassau","NAME_ALT":"Nassau County","NAME_LOCAL":"","TYPE":"County","TYPE_EN":"County","CODE_LOCAL":"36059","REGION":"NY","REGION_COD":"36","ABBREV":"","AREA_SQKM":731,"SAMEASCITY":0,"LABELRANK":0,"NAME_LEN":6,"MAPCOLOR9":1,"MAPCOLOR13":1,"FIPS":"US36059","SOV_A3":"US1","ADM0_A3":"USA","ADM0_LABEL":2,"ADMIN":"United States of America","GEONUNIT":"United States of America","GU_A3":"USA","MIN_LABEL":8,"MAX_LABEL":10,"MIN_ZOOM":6.6,"WIKIDATAID":"Q54064","NE_ID":1730096877,"latitude":40.74495,"longitude":-73.58891,"NAME_AR":"ناسو، نيويورك","NAME_BN":"","NAME_DE":"Nassau","NAME_EL":"Κομητεία Νάσαου","NAME_EN":"Nassau","NAME_ES":"Nassau","NAME_FA":"شهرستان ناساو، نیویورک","NAME_FR":"Nassau","NAME_HE":"מחוז נסאו","NAME_HI":"","NAME_HU":"Nassau","NAME_ID":"Nassau","NAME_IT":"Nassau","NAME_JA":"ナッソー郡","NAME_KO":"나소","NAME_NL":"Nassau","NAME_PL":"Nassau","NAME_PT":"Nassau","NAME_RU":"Нассо","NAME_SV":"Nassau","NAME_TR":"Nassau","NAME_UK":"Нассау","NAME_UR":"نساؤ کاؤنٹی، نیویارک","NAME_VI":"Nassau","NAME_ZH":"納蘇縣","NAME_ZHT":"納蘇縣"}},{"arcs":[[63]],"type":"Polygon","properties":{"FEATURECLA":"Admin-2 scale rank","SCALERANK":0,"ADM2_CODE":"USA-36085","ISO_3166_2":"US-36","ISO_A2":"US","ADM0_SR":1,"NAME":"Richmond","NAME_ALT":"Richmond County","NAME_LOCAL":"","TYPE":"County","TYPE_EN":"County","CODE_LOCAL":"36085","REGION":"NY","REGION_COD":"36","ABBREV":"","AREA_SQKM":140,"SAMEASCITY":1,"LABELRANK":0,"NAME_LEN":8,"MAPCOLOR9":1,"MAPCOLOR13":1,"FIPS":"US36085","SOV_A3":"US1","ADM0_A3":"USA","ADM0_LABEL":2,"ADMIN":"United States of America","GEONUNIT":"United States of America","GU_A3":"USA","MIN_LABEL":8,"MAX_LABEL":10,"MIN_ZOOM":6.6,"WIKIDATAID":"Q18432","NE_ID":1730093567,"latitude":40.585535,"longitude":-74.148752,"NAME_AR":"جزيرة ستاتن","NAME_BN":"স্ট্যাটেন আইল্যান্ড","NAME_DE":"Staten Island","NAME_EL":"Στάτεν Άιλαντ","NAME_EN":"Staten Island","NAME_ES":"Staten Island","NAME_FA":"استاتن آیلند","NAME_FR":"Staten Island","NAME_HE":"סטטן איילנד","NAME_HI":"","NAME_HU":"Staten Island","NAME_ID":"Staten Island","NAME_IT":"Staten Island","NAME_JA":"スタテンアイランド","NAME_KO":"스태튼아일랜드","NAME_NL":"Staten Island","NAME_PL":"Staten Island","NAME_PT":"Staten Island","NAME_RU":"Статен-Айленд","NAME_SV":"Staten Island","NAME_TR":"Staten Island","NAME_UK":"Стетен-Айленд","NAME_UR":"سٹیٹن جزیرہ، نیویارک","NAME_VI":"Đảo Staten","NAME_ZH":"史泰登岛","NAME_ZHT":"史泰登島"}},{"arcs":[[[-63,64,65,66]],[[67,-61]]],"type":"MultiPolygon","properties":{"FEATURECLA":"Admin-2 scale rank","SCALERANK":0,"ADM2_CODE":"USA-36081","ISO_3166_2":"US-36","ISO_A2":"US","ADM0_SR":1,"NAME":"Queens","NAME_ALT":"Queens County","NAME_LOCAL":"","TYPE":"County","TYPE_EN":"County","CODE_LOCAL":"36081","REGION":"NY","REGION_COD":"36","ABBREV":"","AREA_SQKM":280,"SAMEASCITY":1,"LABELRANK":0,"NAME_LEN":6,"MAPCOLOR9":1,"MAPCOLOR13":1,"FIPS":"US36081","SOV_A3":"US1","ADM0_A3":"USA","ADM0_LABEL":2,"ADMIN":"United States of America","GEONUNIT":"United States of America","GU_A3":"USA","MIN_LABEL":8,"MAX_LABEL":10,"MIN_ZOOM":6.6,"WIKIDATAID":"Q18424","NE_ID":1730096653,"latitude":40.718565,"longitude":-73.80646,"NAME_AR":"كوينز","NAME_BN":"কুইন্স","NAME_DE":"Queens","NAME_EL":"Κουίνς","NAME_EN":"Queens","NAME_ES":"Queens","NAME_FA":"کویینز","NAME_FR":"Queens","NAME_HE":"קווינס","NAME_HI":"क्वीनस","NAME_HU":"Queens","NAME_ID":"Queens","NAME_IT":"Queens","NAME_JA":"クイーンズ区","NAME_KO":"퀸스","NAME_NL":"Queens","NAME_PL":"Queens","NAME_PT":"Queens","NAME_RU":"Куинс","NAME_SV":"Queens","NAME_TR":"Queens","NAME_UK":"Квінз","NAME_UR":"کوئینز","NAME_VI":"Queens","NAME_ZH":"皇后區","NAME_ZHT":"皇后區"}},{"arcs":[[-66,68]],"type":"Polygon","properties":{"FEATURECLA":"Admin-2 scale rank","SCALERANK":0,"ADM2_CODE":"USA-36047","ISO_3166_2":"US-36","ISO_A2":"US","ADM0_SR":1,"NAME":"Kings","NAME_ALT":"Kings County","NAME_LOCAL":"","TYPE":"County","TYPE_EN":"County","CODE_LOCAL":"36047","REGION":"NY","REGION_COD":"36","ABBREV":"","AREA_SQKM":179,"SAMEASCITY":1,"LABELRANK":0,"NAME_LEN":5,"MAPCOLOR9":1,"MAPCOLOR13":1,"FIPS":"US36047","SOV_A3":"US1","ADM0_A3":"USA","ADM0_LABEL":2,"ADMIN":"United States of America","GEONUNIT":"United States of America","GU_A3":"USA","MIN_LABEL":8,"MAX_LABEL":10,"MIN_ZOOM":6.6,"WIKIDATAID":"Q18419","NE_ID":1730096643,"latitude":40.643605,"longitude":-73.949757,"NAME_AR":"بروكلين","NAME_BN":"ব্রুকলিন","NAME_DE":"Brooklyn","NAME_EL":"Μπρούκλιν","NAME_EN":"Brooklyn","NAME_ES":"Brooklyn","NAME_FA":"بروکلین","NAME_FR":"Brooklyn","NAME_HE":"ברוקלין","NAME_HI":"ब्रुकलीन","NAME_HU":"Brooklyn","NAME_ID":"Brooklyn","NAME_IT":"Brooklyn","NAME_JA":"ブルックリン区","NAME_KO":"브루클린","NAME_NL":"Brooklyn","NAME_PL":"Brooklyn","NAME_PT":"Brooklyn","NAME_RU":"Бруклин","NAME_SV":"Brooklyn","NAME_TR":"Brooklyn","NAME_UK":"Бруклін","NAME_UR":"بروکلن، نیویارک","NAME_VI":"Brooklyn","NAME_ZH":"布魯克林區","NAME_ZHT":"布魯克林區"}},{"arcs":[[69,-34,-31,70,71]],"type":"Polygon","properties":{"FEATURECLA":"Admin-2 scale rank","SCALERANK":0,"ADM2_CODE":"USA-09005","ISO_3166_2":"US-09","ISO_A2":"US","ADM0_SR":1,"NAME":"Litchfield","NAME_ALT":"Litchfield County","NAME_LOCAL":"","TYPE":"County","TYPE_EN":"County","CODE_LOCAL":"09005","REGION":"CT","REGION_COD":"09","ABBREV":"","AREA_SQKM":2415,"SAMEASCITY":0,"LABELRANK":0,"NAME_LEN":10,"MAPCOLOR9":1,"MAPCOLOR13":1,"FIPS":"US09005","SOV_A3":"US1","ADM0_A3":"USA","ADM0_LABEL":2,"ADMIN":"United States of America","GEONUNIT":"United States of America","GU_A3":"USA","MIN_LABEL":8,"MAX_LABEL":10,"MIN_ZOOM":6.6,"WIKIDATAID":"Q54235","NE_ID":1730090305,"latitude":41.798011,"longitude":-73.247715,"NAME_AR":"ليتشفيلد","NAME_BN":"","NAME_DE":"Litchfield","NAME_EL":"","NAME_EN":"Litchfield","NAME_ES":"Litchfield","NAME_FA":"شهرستان لتچفیلد، کنتیکت","NAME_FR":"Litchfield","NAME_HE":"מחוז ליצ'פילד","NAME_HI":"","NAME_HU":"Litchfield","NAME_ID":"Wilayah Litchfield","NAME_IT":"Litchfield","NAME_JA":"リッチフィールド郡","NAME_KO":"리치필드","NAME_NL":"Litchfield","NAME_PL":"Litchfield","NAME_PT":"Litchfield","NAME_RU":"Литчфилд","NAME_SV":"Litchfield","NAME_TR":"Litchfield","NAME_UK":"Лічфілд","NAME_UR":"لچفیلڈ کاؤنٹی، کنیکٹیکٹ","NAME_VI":"Litchfield","NAME_ZH":"利奇菲爾德縣","NAME_ZHT":"利奇菲爾德縣"}},{"arcs":[[72,-42,-39,-35,-70,73]],"type":"Polygon","properties":{"FEATURECLA":"Admin-2 scale rank","SCALERANK":0,"ADM2_CODE":"USA-09003","ISO_3166_2":"US-09","ISO_A2":"US","ADM0_SR":1,"NAME":"Hartford","NAME_ALT":"Hartford County","NAME_LOCAL":"","TYPE":"County","TYPE_EN":"County","CODE_LOCAL":"09003","REGION":"CT","REGION_COD":"09","ABBREV":"","AREA_SQKM":1945,"SAMEASCITY":0,"LABELRANK":0,"NAME_LEN":8,"MAPCOLOR9":1,"MAPCOLOR13":1,"FIPS":"US09003","SOV_A3":"US1","ADM0_A3":"USA","ADM0_LABEL":2,"ADMIN":"United States of America","GEONUNIT":"United States of America","GU_A3":"USA","MIN_LABEL":8,"MAX_LABEL":10,"MIN_ZOOM":6.6,"WIKIDATAID":"Q54236","NE_ID":1730090303,"latitude":41.814138,"longitude":-72.733338,"NAME_AR":"هارتفورد","NAME_BN":"","NAME_DE":"Hartford","NAME_EL":"Χάρτφορντ","NAME_EN":"Hartford","NAME_ES":"Hartford","NAME_FA":"شهرستان هارتفورد، کنتیکت","NAME_FR":"Hartford","NAME_HE":"מחוז הרטפורד","NAME_HI":"","NAME_HU":"Hartford","NAME_ID":"Hartford","NAME_IT":"Hartford","NAME_JA":"ハートフォード郡","NAME_KO":"하트퍼드","NAME_NL":"Hartford","NAME_PL":"Hartford","NAME_PT":"Hartford","NAME_RU":"Хартфорд","NAME_SV":"Hartford","NAME_TR":"Hartford","NAME_UK":"Гартфорд","NAME_UR":"ہارٹفورڈ کاؤنٹی، کنیکٹیکٹ","NAME_VI":"Hartford","NAME_ZH":"哈特福德縣","NAME_ZHT":"哈特福德縣"}},{"arcs":[[74,-43,-73,75]],"type":"Polygon","properties":{"FEATURECLA":"Admin-2 scale rank","SCALERANK":0,"ADM2_CODE":"USA-09013","ISO_3166_2":"US-09","ISO_A2":"US","ADM0_SR":1,"NAME":"Tolland","NAME_ALT":"Tolland County","NAME_LOCAL":"","TYPE":"County","TYPE_EN":"County","CODE_LOCAL":"09013","REGION":"CT","REGION_COD":"09","ABBREV":"","AREA_SQKM":1064,"SAMEASCITY":0,"LABELRANK":0,"NAME_LEN":7,"MAPCOLOR9":1,"MAPCOLOR13":1,"FIPS":"US09013","SOV_A3":"US1","ADM0_A3":"USA","ADM0_LABEL":2,"ADMIN":"United States of America","GEONUNIT":"United States of America","GU_A3":"USA","MIN_LABEL":8,"MAX_LABEL":10,"MIN_ZOOM":6.6,"WIKIDATAID":"Q54246","NE_ID":1730090309,"latitude":41.873335,"longitude":-72.353974,"NAME_AR":"تولاند","NAME_BN":"","NAME_DE":"Tolland","NAME_EL":"","NAME_EN":"Tolland","NAME_ES":"Tolland","NAME_FA":"شهرستان تولند، کنتیکت","NAME_FR":"Tolland","NAME_HE":"מחוז טולאנד","NAME_HI":"","NAME_HU":"Tolland","NAME_ID":"","NAME_IT":"Tolland","NAME_JA":"トーランド郡","NAME_KO":"톨랜드","NAME_NL":"Tolland","NAME_PL":"Tolland","NAME_PT":"Tolland","NAME_RU":"Толланд","NAME_SV":"Tolland","NAME_TR":"Tolland","NAME_UK":"Толленд","NAME_UR":"ٹولینڈ کاؤنٹی، کنیکٹیکٹ","NAME_VI":"Tolland","NAME_ZH":"托兰县","NAME_ZHT":"托兰县"}},{"arcs":[[-44,-75,76]],"type":"Polygon","properties":{"FEATURECLA":"Admin-2 scale rank","SCALERANK":0,"ADM2_CODE":"USA-09015","ISO_3166_2":"US-09","ISO_A2":"US","ADM0_SR":1,"NAME":"Windham","NAME_ALT":"Windham County","NAME_LOCAL":"","TYPE":"County","TYPE_EN":"County","CODE_LOCAL":"09015","REGION":"CT","REGION_COD":"09","ABBREV":"","AREA_SQKM":1324,"SAMEASCITY":0,"LABELRANK":0,"NAME_LEN":7,"MAPCOLOR9":1,"MAPCOLOR13":1,"FIPS":"US09015","SOV_A3":"US1","ADM0_A3":"USA","ADM0_LABEL":2,"ADMIN":"United States of America","GEONUNIT":"United States of America","GU_A3":"USA","MIN_LABEL":8,"MAX_LABEL":10,"MIN_ZOOM":6.6,"WIKIDATAID":"Q54251","NE_ID":1730090311,"latitude":41.818597,"longitude":-71.98594,"NAME_AR":"ويندهام","NAME_BN":"","NAME_DE":"Windham","NAME_EL":"","NAME_EN":"Windham","NAME_ES":"Windham","NAME_FA":"شهرستان ویندهام، کنتیکت","NAME_FR":"Windham","NAME_HE":"מחוז ווינדהאם","NAME_HI":"","NAME_HU":"Windham","NAME_ID":"Wilayah Windham","NAME_IT":"Windham","NAME_JA":"ウィンダム郡","NAME_KO":"윈덤","NAME_NL":"Windham","NAME_PL":"Windham","NAME_PT":"Windham","NAME_RU":"Уиндем","NAME_SV":"Windham","NAME_TR":"Windham","NAME_UK":"Віндем","NAME_UR":"وینڈم کاؤنٹی، کنیکٹیکٹ","NAME_VI":"Windham","NAME_ZH":"溫德姆縣","NAME_ZHT":"溫德姆縣"}},{"arcs":[[77,78,79,80]],"type":"Polygon","properties":{"FEATURECLA":"Admin-2 scale rank","SCALERANK":0,"ADM2_CODE":"USA-42103","ISO_3166_2":"US-42","ISO_A2":"US","ADM0_SR":1,"NAME":"Pike","NAME_ALT":"Pike County","NAME_LOCAL":"","TYPE":"County","TYPE_EN":"County","CODE_LOCAL":"42103","REGION":"PA","REGION_COD":"42","ABBREV":"","AREA_SQKM":1483,"SAMEASCITY":0,"LABELRANK":0,"NAME_LEN":4,"MAPCOLOR9":1,"MAPCOLOR13":1,"FIPS":"US42103","SOV_A3":"US1","ADM0_A3":"USA","ADM0_LABEL":2,"ADMIN":"United States of America","GEONUNIT":"United States of America","GU_A3":"USA","MIN_LABEL":8,"MAX_LABEL":10,"MIN_ZOOM":6.6,"WIKIDATAID":"Q495649","NE_ID":1730094469,"latitude":41.33077,"longitude":-74.998653,"NAME_AR":"بايك","NAME_BN":"","NAME_DE":"Pike","NAME_EL":"","NAME_EN":"Pike","NAME_ES":"Pike","NAME_FA":"شهرستان پایک، پنسیلوانیا","NAME_FR":"Pike","NAME_HE":"מחוז פייק","NAME_HI":"","NAME_HU":"Pike","NAME_ID":"","NAME_IT":"Pike","NAME_JA":"パイク郡","NAME_KO":"파이크","NAME_NL":"Pike","NAME_PL":"Pike","NAME_PT":"Pike","NAME_RU":"Пайк","NAME_SV":"Pike","NAME_TR":"Pike","NAME_UK":"Пайк","NAME_UR":"پائیک کاؤنٹی، پنسلوانیا","NAME_VI":"Pike","NAME_ZH":"派克县","NAME_ZHT":"派克縣"}},{"arcs":[[-78,81,82,83,84,85]],"type":"Polygon","properties":{"FEATURECLA":"Admin-2 scale rank","SCALERANK":0,"ADM2_CODE":"USA-34037","ISO_3166_2":"US-34","ISO_A2":"US","ADM0_SR":1,"NAME":"Sussex","NAME_ALT":"Sussex County","NAME_LOCAL":"","TYPE":"County","TYPE_EN":"County","CODE_LOCAL":"34037","REGION":"NJ","REGION_COD":"34","ABBREV":"","AREA_SQKM":1379,"SAMEASCITY":0,"LABELRANK":0,"NAME_LEN":6,"MAPCOLOR9":1,"MAPCOLOR13":1,"FIPS":"US34037","SOV_A3":"US1","ADM0_A3":"USA","ADM0_LABEL":2,"ADMIN":"United States of America","GEONUNIT":"United States of America","GU_A3":"USA","MIN_LABEL":8,"MAX_LABEL":10,"MIN_ZOOM":6.6,"WIKIDATAID":"Q495998","NE_ID":1730093413,"latitude":41.158931,"longitude":-74.695305,"NAME_AR":"ساسكس","NAME_BN":"","NAME_DE":"Sussex","NAME_EL":"","NAME_EN":"Sussex","NAME_ES":"Sussex","NAME_FA":"شهرستان ساسکس، نیوجرسی","NAME_FR":"Sussex","NAME_HE":"מחוז ססקס","NAME_HI":"","NAME_HU":"Sussex","NAME_ID":"","NAME_IT":"Sussex","NAME_JA":"サセックス郡","NAME_KO":"서식스","NAME_NL":"Sussex","NAME_PL":"Sussex","NAME_PT":"Sussex","NAME_RU":"Сассекс","NAME_SV":"Sussex","NAME_TR":"Sussex","NAME_UK":"Сассекс","NAME_UR":"سسیکس کاؤنٹی، نیو جرسی","NAME_VI":"Sussex","NAME_ZH":"苏塞克斯县","NAME_ZHT":"蘇塞克斯縣"}},{"arcs":[[-85,86,87]],"type":"Polygon","properties":{"FEATURECLA":"Admin-2 scale rank","SCALERANK":0,"ADM2_CODE":"USA-34041","ISO_3166_2":"US-34","ISO_A2":"US","ADM0_SR":1,"NAME":"Warren","NAME_ALT":"Warren County","NAME_LOCAL":"","TYPE":"County","TYPE_EN":"County","CODE_LOCAL":"34041","REGION":"NJ","REGION_COD":"34","ABBREV":"","AREA_SQKM":956,"SAMEASCITY":0,"LABELRANK":0,"NAME_LEN":6,"MAPCOLOR9":1,"MAPCOLOR13":1,"FIPS":"US34041","SOV_A3":"US1","ADM0_A3":"USA","ADM0_LABEL":2,"ADMIN":"United States of America","GEONUNIT":"United States of America","GU_A3":"USA","MIN_LABEL":8,"MAX_LABEL":10,"MIN_ZOOM":6.6,"WIKIDATAID":"Q502468","NE_ID":1730093417,"latitude":40.89549,"longitude":-74.940729,"NAME_AR":"وارين","NAME_BN":"","NAME_DE":"Warren","NAME_EL":"","NAME_EN":"Warren","NAME_ES":"Warren","NAME_FA":"شهرستان وارن، نیوجرسی","NAME_FR":"Warren","NAME_HE":"מחוז וורן","NAME_HI":"","NAME_HU":"Warren","NAME_ID":"","NAME_IT":"Warren","NAME_JA":"ウォーレン郡","NAME_KO":"워런","NAME_NL":"Warren","NAME_PL":"Warren","NAME_PT":"Warren","NAME_RU":"Уоррен","NAME_SV":"Warren","NAME_TR":"Warren","NAME_UK":"Воррен","NAME_UR":"وارن کاؤنٹی، نیو جرسی","NAME_VI":"Warren","NAME_ZH":"沃伦县","NAME_ZHT":"沃倫縣"}},{"arcs":[[88,89,90]],"type":"Polygon","properties":{"FEATURECLA":"Admin-2 scale rank","SCALERANK":0,"ADM2_CODE":"USA-34019","ISO_3166_2":"US-34","ISO_A2":"US","ADM0_SR":1,"NAME":"Hunterdon","NAME_ALT":"Hunterdon County","NAME_LOCAL":"","TYPE":"County","TYPE_EN":"County","CODE_LOCAL":"34019","REGION":"NJ","REGION_COD":"34","ABBREV":"","AREA_SQKM":1127,"SAMEASCITY":0,"LABELRANK":0,"NAME_LEN":9,"MAPCOLOR9":1,"MAPCOLOR13":1,"FIPS":"US34019","SOV_A3":"US1","ADM0_A3":"USA","ADM0_LABEL":2,"ADMIN":"United States of America","GEONUNIT":"United States of America","GU_A3":"USA","MIN_LABEL":8,"MAX_LABEL":10,"MIN_ZOOM":6.6,"WIKIDATAID":"Q502451","NE_ID":1730093397,"latitude":40.57162,"longitude":-74.928918,"NAME_AR":"هونتردون","NAME_BN":"","NAME_DE":"Hunterdon","NAME_EL":"","NAME_EN":"Hunterdon","NAME_ES":"Hunterdon","NAME_FA":"شهرستان هانتردون","NAME_FR":"Hunterdon","NAME_HE":"מחוז האנטרדון","NAME_HI":"","NAME_HU":"Hunterdon","NAME_ID":"","NAME_IT":"Hunterdon","NAME_JA":"ハンタードン郡","NAME_KO":"헌터든","NAME_NL":"Hunterdon","NAME_PL":"Hunterdon","NAME_PT":"Hunterdon","NAME_RU":"Хантердон","NAME_SV":"Hunterdon","NAME_TR":"Hunterdon","NAME_UK":"Гантердон","NAME_UR":"ہنٹرڈن کاؤنٹی، نیو جرسی","NAME_VI":"Hunterdon","NAME_ZH":"亨特敦县","NAME_ZHT":"亨特敦縣"}},{"arcs":[[91,92,-80,93]],"type":"Polygon","properties":{"FEATURECLA":"Admin-2 scale rank","SCALERANK":0,"ADM2_CODE":"USA-36105","ISO_3166_2":"US-36","ISO_A2":"US","ADM0_SR":1,"NAME":"Sullivan","NAME_ALT":"Sullivan County","NAME_LOCAL":"","TYPE":"County","TYPE_EN":"County","CODE_LOCAL":"36105","REGION":"NY","REGION_COD":"36","ABBREV":"","AREA_SQKM":2580,"SAMEASCITY":0,"LABELRANK":0,"NAME_LEN":8,"MAPCOLOR9":1,"MAPCOLOR13":1,"FIPS":"US36105","SOV_A3":"US1","ADM0_A3":"USA","ADM0_LABEL":2,"ADMIN":"United States of America","GEONUNIT":"United States of America","GU_A3":"USA","MIN_LABEL":8,"MAX_LABEL":10,"MIN_ZOOM":6.6,"WIKIDATAID":"Q70979","NE_ID":1730093587,"latitude":41.724453,"longitude":-74.814291,"NAME_AR":"سوليفان، نيويورك","NAME_BN":"","NAME_DE":"Sullivan","NAME_EL":"","NAME_EN":"Sullivan","NAME_ES":"Sullivan","NAME_FA":"شهرستان سالیوان، نیویورک","NAME_FR":"Sullivan","NAME_HE":"מחוז סאליבן","NAME_HI":"","NAME_HU":"Sullivan","NAME_ID":"","NAME_IT":"Sullivan","NAME_JA":"サリバン郡","NAME_KO":"설리번","NAME_NL":"Sullivan","NAME_PL":"Sullivan","NAME_PT":"Sullivan","NAME_RU":"Салливан","NAME_SV":"Sullivan","NAME_TR":"Sullivan","NAME_UK":"Салліван","NAME_UR":"سلیون کاؤنٹی، نیویارک","NAME_VI":"Sullivan","NAME_ZH":"沙利文縣","NAME_ZHT":"沙利文縣"}},{"arcs":[[-81,-93,94,95,96,-20,97,-82]],"type":"Polygon","properties":{"FEATURECLA":"Admin-2 scale rank","SCALERANK":0,"ADM2_CODE":"USA-36071","ISO_3166_2":"US-36","ISO_A2":"US","ADM0_SR":1,"NAME":"Orange","NAME_ALT":"Orange County","NAME_LOCAL":"","TYPE":"County","TYPE_EN":"County","CODE_LOCAL":"36071","REGION":"NY","REGION_COD":"36","ABBREV":"","AREA_SQKM":2170,"SAMEASCITY":0,"LABELRANK":0,"NAME_LEN":6,"MAPCOLOR9":1,"MAPCOLOR13":1,"FIPS":"US36071","SOV_A3":"US1","ADM0_A3":"USA","ADM0_LABEL":2,"ADMIN":"United States of America","GEONUNIT":"United States of America","GU_A3":"USA","MIN_LABEL":8,"MAX_LABEL":10,"MIN_ZOOM":6.6,"WIKIDATAID":"Q108618","NE_ID":1730093557,"latitude":41.393682,"longitude":-74.274425,"NAME_AR":"أورانج، نيويورك","NAME_BN":"","NAME_DE":"Orange","NAME_EL":"","NAME_EN":"Orange","NAME_ES":"Orange","NAME_FA":"شهرستان اورنج، نیویورک","NAME_FR":"'Orange","NAME_HE":"","NAME_HI":"","NAME_HU":"Orange","NAME_ID":"","NAME_IT":"Orange","NAME_JA":"オレンジ郡","NAME_KO":"오렌지","NAME_NL":"Orange","NAME_PL":"Orange","NAME_PT":"Orange","NAME_RU":"Ориндж","NAME_SV":"Orange","NAME_TR":"Orange","NAME_UK":"Орандж","NAME_UR":"اورینج کاؤنٹی، نیویارک","NAME_VI":"Orange","NAME_ZH":"奥兰治县","NAME_ZHT":"奧蘭治縣"}},{"arcs":[[-71,-30,98,-96,99,100]],"type":"Polygon","properties":{"FEATURECLA":"Admin-2 scale rank","SCALERANK":0,"ADM2_CODE":"USA-36027","ISO_3166_2":"US-36","ISO_A2":"US","ADM0_SR":1,"NAME":"Dutchess","NAME_ALT":"Dutchess County","NAME_LOCAL":"","TYPE":"County","TYPE_EN":"County","CODE_LOCAL":"36027","REGION":"NY","REGION_COD":"36","ABBREV":"","AREA_SQKM":2172,"SAMEASCITY":0,"LABELRANK":0,"NAME_LEN":8,"MAPCOLOR9":1,"MAPCOLOR13":1,"FIPS":"US36027","SOV_A3":"US1","ADM0_A3":"USA","ADM0_LABEL":2,"ADMIN":"United States of America","GEONUNIT":"United States of America","GU_A3":"USA","MIN_LABEL":8,"MAX_LABEL":10,"MIN_ZOOM":6.6,"WIKIDATAID":"Q115148","NE_ID":1730093519,"latitude":41.776557,"longitude":-73.736097,"NAME_AR":"دوتشيز، نيويورك","NAME_BN":"","NAME_DE":"Dutchess","NAME_EL":"","NAME_EN":"Dutchess","NAME_ES":"Dutchess","NAME_FA":"شهرستان داچس، نیویورک","NAME_FR":"Dutchess","NAME_HE":"מחוז דאצ'ס","NAME_HI":"","NAME_HU":"Dutchess","NAME_ID":"","NAME_IT":"Dutchess","NAME_JA":"ダッチェス郡","NAME_KO":"더치스","NAME_NL":"Dutchess","NAME_PL":"Dutchess","NAME_PT":"Dutchess","NAME_RU":"Датчесс","NAME_SV":"Dutchess","NAME_TR":"Dutchess","NAME_UK":"Дачесс","NAME_UR":"ڈچس کاؤنٹی","NAME_VI":"Dutchess","NAME_ZH":"达奇斯县","NAME_ZHT":"杜且斯縣"}},{"arcs":[[-29,101,-21,-97,-99]],"type":"Polygon","properties":{"FEATURECLA":"Admin-2 scale rank","SCALERANK":0,"ADM2_CODE":"USA-36079","ISO_3166_2":"US-36","ISO_A2":"US","ADM0_SR":1,"NAME":"Putnam","NAME_ALT":"Putnam County","NAME_LOCAL":"","TYPE":"County","TYPE_EN":"County","CODE_LOCAL":"36079","REGION":"NY","REGION_COD":"36","ABBREV":"","AREA_SQKM":660,"SAMEASCITY":0,"LABELRANK":0,"NAME_LEN":6,"MAPCOLOR9":1,"MAPCOLOR13":1,"FIPS":"US36079","SOV_A3":"US1","ADM0_A3":"USA","ADM0_LABEL":2,"ADMIN":"United States of America","GEONUNIT":"United States of America","GU_A3":"USA","MIN_LABEL":8,"MAX_LABEL":10,"MIN_ZOOM":6.6,"WIKIDATAID":"Q115266","NE_ID":1730093563,"latitude":41.424413,"longitude":-73.745382,"NAME_AR":"بوتنام، نيويورك","NAME_BN":"","NAME_DE":"Putnam","NAME_EL":"","NAME_EN":"Putnam","NAME_ES":"Putnam","NAME_FA":"شهرستان پوتنام، نیویورک","NAME_FR":"Putnam","NAME_HE":"מחוז פוטנאם","NAME_HI":"","NAME_HU":"Putnam","NAME_ID":"","NAME_IT":"Putnam","NAME_JA":"パットナム郡","NAME_KO":"퍼트넘","NAME_NL":"Putnam","NAME_PL":"Putnam","NAME_PT":"Putnam","NAME_RU":"Патнам","NAME_SV":"Putnam","NAME_TR":"Putnam","NAME_UK":"Патнем","NAME_UR":"پٹنیم کاؤنٹی، نیویارک","NAME_VI":"Putnam","NAME_ZH":"帕特南县","NAME_ZHT":"普特南縣"}},{"arcs":[[-98,-19,-16,-10,102,-83]],"type":"Polygon","properties":{"FEATURECLA":"Admin-2 scale rank","SCALERANK":0,"ADM2_CODE":"USA-34031","ISO_3166_2":"US-34","ISO_A2":"US","ADM0_SR":1,"NAME":"Passaic","NAME_ALT":"Passaic County","NAME_LOCAL":"","TYPE":"County","TYPE_EN":"County","CODE_LOCAL":"34031","REGION":"NJ","REGION_COD":"34","ABBREV":"","AREA_SQKM":503,"SAMEASCITY":0,"LABELRANK":0,"NAME_LEN":7,"MAPCOLOR9":1,"MAPCOLOR13":1,"FIPS":"US34031","SOV_A3":"US1","ADM0_A3":"USA","ADM0_LABEL":2,"ADMIN":"United States of America","GEONUNIT":"United States of America","GU_A3":"USA","MIN_LABEL":8,"MAX_LABEL":10,"MIN_ZOOM":6.6,"WIKIDATAID":"Q495974","NE_ID":1730093407,"latitude":41.095852,"longitude":-74.329476,"NAME_AR":"باسيك","NAME_BN":"","NAME_DE":"Passaic","NAME_EL":"","NAME_EN":"Passaic","NAME_ES":"Passaic","NAME_FA":"شهرستان پاسائیک، نیوجرسی","NAME_FR":"Passaic","NAME_HE":"מחוז פסאיק","NAME_HI":"","NAME_HU":"Passaic","NAME_ID":"","NAME_IT":"Passaic","NAME_JA":"パサイク郡","NAME_KO":"퍼세이익","NAME_NL":"Passaic","NAME_PL":"Passaic","NAME_PT":"Passaic","NAME_RU":"Пассейик","NAME_SV":"Passaic","NAME_TR":"Passaic","NAME_UK":"Пассаїк","NAME_UR":"پاسیک کاؤنٹی، نیو جرسی","NAME_VI":"Passaic","NAME_ZH":"巴赛克县","NAME_ZHT":"巴賽克縣"}},{"arcs":[[-9,-6,103,-89,104,-87,-84,-103]],"type":"Polygon","properties":{"FEATURECLA":"Admin-2 scale rank","SCALERANK":0,"ADM2_CODE":"USA-34027","ISO_3166_2":"US-34","ISO_A2":"US","ADM0_SR":1,"NAME":"Morris","NAME_ALT":"Morris County","NAME_LOCAL":"","TYPE":"County","TYPE_EN":"County","CODE_LOCAL":"34027","REGION":"NJ","REGION_COD":"34","ABBREV":"","AREA_SQKM":1251,"SAMEASCITY":0,"LABELRANK":0,"NAME_LEN":6,"MAPCOLOR9":1,"MAPCOLOR13":1,"FIPS":"US34027","SOV_A3":"US1","ADM0_A3":"USA","ADM0_LABEL":2,"ADMIN":"United States of America","GEONUNIT":"United States of America","GU_A3":"USA","MIN_LABEL":8,"MAX_LABEL":10,"MIN_ZOOM":6.6,"WIKIDATAID":"Q498163","NE_ID":1730093405,"latitude":40.893638,"longitude":-74.496606,"NAME_AR":"موريس","NAME_BN":"","NAME_DE":"Morris","NAME_EL":"","NAME_EN":"Morris","NAME_ES":"Morris","NAME_FA":"شهرستان موریس، نیوجرسی","NAME_FR":"Morris","NAME_HE":"מחוז מוריס","NAME_HI":"","NAME_HU":"Morris","NAME_ID":"","NAME_IT":"Morris","NAME_JA":"モリス郡","NAME_KO":"모리스","NAME_NL":"Morris","NAME_PL":"Morris","NAME_PT":"Morris","NAME_RU":"Моррис","NAME_SV":"Morris","NAME_TR":"Morris","NAME_UK":"Морріс","NAME_UR":"مورس کاؤنٹی، نیو جرسی","NAME_VI":"Morris","NAME_ZH":"摩里斯县","NAME_ZHT":"摩里斯縣"}},{"arcs":[[-90,-104,-5,-1,105]],"type":"Polygon","properties":{"FEATURECLA":"Admin-2 scale rank","SCALERANK":0,"ADM2_CODE":"USA-34035","ISO_3166_2":"US-34","ISO_A2":"US","ADM0_SR":1,"NAME":"Somerset","NAME_ALT":"Somerset County","NAME_LOCAL":"","TYPE":"County","TYPE_EN":"County","CODE_LOCAL":"34035","REGION":"NJ","REGION_COD":"34","ABBREV":"","AREA_SQKM":789,"SAMEASCITY":0,"LABELRANK":0,"NAME_LEN":8,"MAPCOLOR9":1,"MAPCOLOR13":1,"FIPS":"US34035","SOV_A3":"US1","ADM0_A3":"USA","ADM0_LABEL":2,"ADMIN":"United States of America","GEONUNIT":"United States of America","GU_A3":"USA","MIN_LABEL":8,"MAX_LABEL":10,"MIN_ZOOM":6.6,"WIKIDATAID":"Q502414","NE_ID":1730093411,"latitude":40.568263,"longitude":-74.619434,"NAME_AR":"سومرست","NAME_BN":"","NAME_DE":"Somerset","NAME_EL":"","NAME_EN":"Somerset","NAME_ES":"Somerset","NAME_FA":"شهرستان سامرست، نیوجرسی","NAME_FR":"Somerset","NAME_HE":"מחוז סאמרסט","NAME_HI":"","NAME_HU":"Somerset","NAME_ID":"","NAME_IT":"Somerset","NAME_JA":"サマセット郡","NAME_KO":"서머싯","NAME_NL":"Somerset","NAME_PL":"Somerset","NAME_PT":"Somerset","NAME_RU":"Сомерсет","NAME_SV":"Somerset","NAME_TR":"Somerset","NAME_UK":"Сомерсет","NAME_UR":"سومرسیٹ کاؤنٹی، نیو جرسی","NAME_VI":"Somerset","NAME_ZH":"桑莫塞县","NAME_ZHT":"桑莫塞郡"}},{"arcs":[[-100,-95,-92,106]],"type":"Polygon","properties":{"FEATURECLA":"Admin-2 scale rank","SCALERANK":0,"ADM2_CODE":"USA-36111","ISO_3166_2":"US-36","ISO_A2":"US","ADM0_SR":1,"NAME":"Ulster","NAME_ALT":"Ulster County","NAME_LOCAL":"","TYPE":"County","TYPE_EN":"County","CODE_LOCAL":"36111","REGION":"NY","REGION_COD":"36","ABBREV":"","AREA_SQKM":2992,"SAMEASCITY":0,"LABELRANK":0,"NAME_LEN":6,"MAPCOLOR9":1,"MAPCOLOR13":1,"FIPS":"US36111","SOV_A3":"US1","ADM0_A3":"USA","ADM0_LABEL":2,"ADMIN":"United States of America","GEONUNIT":"United States of America","GU_A3":"USA","MIN_LABEL":8,"MAX_LABEL":10,"MIN_ZOOM":6.6,"WIKIDATAID":"Q56152","NE_ID":1730093595,"latitude":41.878194,"longitude":-74.225477,"NAME_AR":"أولستر، نيويورك","NAME_BN":"","NAME_DE":"Ulster","NAME_EL":"","NAME_EN":"Ulster","NAME_ES":"Ulster","NAME_FA":"شهرستان اولستر، نیویورک","NAME_FR":"'Ulster","NAME_HE":"מחוז אלסטר","NAME_HI":"","NAME_HU":"Ulster","NAME_ID":"","NAME_IT":"Ulster","NAME_JA":"アルスター郡","NAME_KO":"얼스터","NAME_NL":"Ulster","NAME_PL":"Ulster","NAME_PT":"Ulster","NAME_RU":"Алстер","NAME_SV":"Ulster","NAME_TR":"Ulster","NAME_UK":"Ольстер","NAME_UR":"السٹر کاؤنٹی، نیویارک","NAME_VI":"Ulster","NAME_ZH":"阿爾斯特縣","NAME_ZHT":"阿爾斯特縣"}}]}}}